organisationid,address1,address2,adress3,city,county,postcode,latitude,longitude
17970,,Rodney Road,,Walton-on-Thames,Surrey,KT12 3LD,51.37999725341797,-0.406042069
17981,,Heathside Road,,Woking,Surrey,GU22 7HS,51.31513214111328,-0.556289494
18102,North Somerset Community Hospital,Old Street,,Clevedon,Avon,BS21 6BS,51.43719482421875,-2.847192764
18138,120 Princess Road,,,Manchester,Greater Manchester,M15 5AT,53.45974349975586,-2.245468855
18142,Old North Road,Bassingbourn,,Royston,,SG8 5JP,52.07812118530274,-0.030604055
18143,Stockton Hall,The Village,Stockton On The Forest,York,North Yorkshire,YO32 9UN,53.99540328979492,-1.002552629
18271,419 Main Road,,,Harwich,Essex,CO12 4EX,51.93469619750977,1.261444091796875
18272,,Tower Road,,Clacton,Essex,CO15 1LH,51.78607940673828,1.148187518119812
18289,The Lane,Wyboston,,Bedford,Bedfordshire,MK44 3AS,52.19832611083984,-0.31028071
18305,1 Stirling Way,Bretton,,Peterborough,Cambridgeshire,PE3 8YA,52.604942321777344,-0.283021808
18314,,Beech Road,Ivybridge,Plymouth,Devon,PL21 9HL,50.38948440551758,-3.959660053
18317,,Mount Gould Road,,Plymouth,,PL4 7QD,50.37840270996094,-4.112740517
18351,,67 Landsdowne Road,,Bournemouth,Dorset,BH1 1RW,50.72975540161133,-1.869780898
18352,,Shenfield Road,,Brentwood,Essex,CM15 8EH,51.62333297729492,0.312835306
18353,,Warren Road,Woodingdean,Brighton,,BN2 6DX,50.83451843261719,-0.081910513
18354,3 Clifton Hill,Clifton,,Bristol,Avon,BS8 1BN,51.45360946655274,-2.61598444
18356,Nuffield Health Cambridge Hospital,4 Trumpington Road,,Cambridge,Cambridgeshire,CB2 8AF,52.19035339355469,0.1235585957765579
18357,"Nuffield Health Chester Hospital, The Grosvenor",Wrexham Road,,Chester,Cheshire,CH4 7QP,53.17634582519531,-2.895246744
18358,,Hatherley Lane,,Cheltenham,Gloucestershire,GL51 6SY,51.89192962646485,-2.129905462
18359,,78 Broyle Road,,Chichester,,PO19 6WB,50.84798049926758,-0.780013144
18360,,Rykneld Road,Littleover,Derby,Derbyshire,DE23 4SN,52.89355087280274,-1.530155182
18361,Nuffield Health Wessex Hospital,Winchester Road,Chandlers Ford,Eastleigh,Hampshire,SO53 2DW,50.99697494506836,-1.35935092
18362,Nuffield Health Exeter Hospital,Wonford Road,,Exeter,Devon,EX2 4UG,50.71631622314453,-3.511271715
18363,,Stirling Road,,Guildford,Surrey,GU2 7RF,51.24165344238281,-0.612543583
18365,,Burrell Road,,Haywards Heath,,RH16 1UD,51.00840377807617,-0.106121421
18366,,Venns Lane,,Hereford,Herefordshire,HR1 1DF,52.06393814086914,-2.69995451
18367,,Foxhall Road,,Ipswich,Suffolk,IP4 5SW,52.04751968383789,1.2289458513259888
18368,,The Chase,Old Milverton Lane,Leamington Spa,Warwickshire,CV32 6RW,52.30849838256836,-1.543865085
18369,Nuffield Health Leeds Hospital,2 Leighton Street,,Leeds,West Yorkshire,LS1 3EB,53.80065918,-1.554257393
18370,,Scraptoft Lane,,Leicester,Leicestershire,LE5 1HY,52.64425659179688,-1.0712955
18371,,Clayton Road,Jesmond,Newcastle Upon Tyne,,NE2 1JP,54.98661422729492,-1.605277061
18372,,Clayton Road,,Newcastle Under Lyme,Staffordshire,ST5 4DB,52.98740768432617,-2.223027706
18373,,Derriford Road,,Plymouth,Devon,PL6 8BG,50.41867446899414,-4.114448071
18374,,Longden Road,,Shrewsbury,Shropshire,SY3 9DP,52.69225692749024,-2.771440506
18375,Nuffield Health Tees Hospital,Junction Road,Norton,Stockton-on-Tees,Cleveland,TS20 1PX,54.59342575073242,-1.335218549
18376,,Staplegrove Elm,,Taunton,Somerset,TA2 6AN,51.02984619140625,-3.126897812
18377,,Kingswood Road,,Tunbridge Wells,Kent,TN2 4UL,51.13151931762695,0.2780530154705048
18378,,Shores Road,,Woking,Surrey,GU21 4BY,51.33221054077149,-0.561365902
18379,,Wood Road,Tettenhall,Wolverhampton,,WV6 8LE,52.59346389770508,-2.171522379
18380,,Beech Road,Headington,Oxford,Oxfordshire,OX3 7RP,51.76044464111328,-1.215518713
18381,,Haxby Road,,York,North Yorkshire,YO31 8TA,53.97470092773438,-1.075559855
18385,,139 Bath Road,,Worcester,Worcestershire,WR5 3YB,52.18108749389648,-2.2162323
18386,,Redland Hill,,Bristol,,BS6 6UT,51.47204971313477,-2.61485076
18388,Chalybeate Hospital,Chalybeate Close,,Southampton,Hampshire,SO16 6UY,50.93061065673828,-1.432714343
18389,Bartons Road,,,Havant,Hampshire,PO9 5NP,50.86859130859375,-0.955126107
18390,Povey Cross Road,,,Horley,Surrey,RH6 0BB,51.16768264770508,-0.183382452
18391,,The Ridge,,St. Leonards-on-Sea,,TN37 7RE,50.88537216186523,0.5677220821380615
18392,Fordcombe Road,Fordcombe,,Tunbridge Wells,Kent,TN3 0RD,51.13451385498047,0.1881597638130188
18393,Impton Lane,,,Chatham,Kent,ME5 9PG,51.32793426513672,0.5265411734580994
18394,Eastern Avenue,,,Southend-on-Sea,Essex,SS2 4XH,51.55439376831055,0.7276030778884885
18395,Roding Lane South,,,Ilford,Essex,IG4 5PZ,51.58715438842773,0.043077961
18396,Heathbourne Road,Bushey Heath,,Bushey,Hertfordshire,WD23 1RD,51.63734055,-0.331717819
18397,Spire Harpenden Hospital,Ambrose Lane,,Harpenden,,AL5 4BP,51.82812881469727,-0.360377461
18398,30 New Road,Impington,,Cambridge,Cambridgeshire,CB24 9EL,52.24476242,0.1133785024285316
18399,Watton Road,,,Norwich,Norfolk,NR4 7TD,52.62712097167969,1.2257657051086426
18400,Eagle Way,,,Brentwood,Essex,CM13 3LE,51.60041427612305,0.2930419147014617
18401,1 Damson Parkway,,,Solihull,West Midlands,B91 2PP,52.42188644,-1.763121605
18402,Little Aston Hall Drive,Little Aston,,Sutton Coldfield,,B74 3UP,52.59960938,-1.875568867
18403,,Gartree Road,,Leicester,Leicestershire,LE2 2FF,52.61466598510742,-1.083456755
18404,,Fir Tree Close,Stretton,Warrington,Cheshire,WA4 4LU,53.33747482299805,-2.576329708
18405,Holmwood Drive,Thingwall,,Wirral,Merseyside,CH61 1AU,53.34927749633789,-3.080098629
18406,170 Barlow Moor Road,Didsbury,,Manchester,Greater Manchester,M20 2AF,53.42523193359375,-2.25366497
18407,,Jackson Avenue,,Leeds,West Yorkshire,LS8 1NT,53.83246994018554,-1.513913035
18408,Picktree Lane,,,Washington,Tyne and Wear,NE38 9JZ,54.87936782836914,-1.559100747
18409,Spire Liverpool Hospital,57 Greenbank Road,,Liverpool,,L18 1HQ,53.38527679,-2.924102306
18410,West Street,,,Macclesfield,Cheshire,SK11 8DW,53.26012802124024,-2.137799501
18412,Wexham Street,Wexham,,Slough,Berkshire,SL3 6NH,51.54278945922852,-0.572400808
18413,16 Bath Road,,,Reading,Berkshire,RG1 6NS,51.45022201538086,-0.986806393
18414,Crondall Lane,,,Farnham,Surrey,GU10 5XX,51.22512817382813,-0.847474158
18416,,St. Walburgas Road,,Blackpool,Lancashire,FY3 8BP,53.82605743408203,-3.019570589
18417,Elland Lane,,,Elland,West Yorkshire,HX5 9EB,53.68877792358398,-1.828913331
18419,Methley Lane,Methley,,Leeds,West Yorkshire,LS26 9HG,53.74044418334961,-1.423310161
18420,Lowfield Road,Anlaby,,Hull,,HU10 7AZ,53.73925399780274,-0.435012013
18421,,2 Montefiore Road,,Hove,East Sussex,BN3 1RD,50.83185577392578,-0.154885277
18423,The Alexandra Hospital,Mill Lane,,Cheadle,Cheshire,SK8 2PX,53.39726638793945,-2.21581316
18424,The Bath Clinic,Claverton Down Road,Combe Down,Bath,,BA2 7BR,51.36428451538086,-2.332021952
18425,,Preston New Road,,Blackburn,Lancashire,BB2 7AE,53.75504302978516,-2.513161898
18426,Chorley New Road,Lostock,,Bolton,Lancashire,BL6 4LA,53.58149337768554,-2.499290466
18427,,Rickmansworth Road,,Northwood,Middlesex,HA6 2JW,51.61645126342773,-0.446507066
18428,,40 - 42 Lee Terrace,,London,,SE3 9UD,51.46347427368164,0.006279341
18430,,Nackington Road,,Canterbury,Kent,CT4 7AR,51.26171875,1.0874593257904053
18431,,Bucks Cross Road,Chelsfield,Orpington,Kent,BR6 7RG,51.35846710205078,0.1308609545230865
18432,,London Road,,Great Missenden,Buckinghamshire,HP16 0EN,51.69053268432617,-0.69365418
18433,,Sudbury Hill,,Harrow,Middlesex,HA1 3RX,51.56496810913086,-0.332694322
18434,,St Andrews Road,,Droitwich,Worcestershire,WR9 8DN,52.26553726196289,-2.15086627
18438,BMI Hendon Hospital,46-50 Sunny Gardens Road,Hendon,London,,NW4 1RP,51.593711853027344,-0.224589705
18439,Bodiam Avenue,Goring-By-Sea,,Worthing,West Sussex,BN12 5AT,50.81138992,-0.431818694
18441,,St Mary's Road,,Poole,Dorset,BH15 2BH,50.72200775146485,-1.975681186
18442,,Manchester Road,,Rochdale,Lancashire,OL11 4LZ,53.60650634765625,-2.167490244
18443,,The Ridgeway,,Enfield,Middlesex,EN2 8SD,51.66790008544922,-0.105554052
18444,,1 Beaumont Square,Stepney Green,London,,E1 4NL,51.52040100097656,-0.046729956
18445,,Church End,,Biddenham,Bedfordshire,MK40 4AW,52.13838577270508,-0.513136744
18446,University Hospital Site,Clifford Bridge Road,,Coventry,Warwickshire,CV2 2LQ,52.42121505737305,-1.438388586
18449,Sherwood Lodge Drive,Burntstump Country Park,,Arnold,Nottinghamshire,NG5 8RX,53.05009460449218,-1.142871261
18450,,Osborne Road,,Windsor,Berkshire,SL4 3SJ,51.47469711303711,-0.61026597
18451,Priory Road,Edgbaston,,Birmingham,West Midlands,B5 7UG,52.45643234,-1.911408663
18452,Moormead Road,Wroughton,,Swindon,Wiltshire,SN4 9DD,51.52532958984375,-1.786146641
18453,Guildford Road,Ottershaw,,Chertsey,Surrey,KT16 0RQ,51.37797546386719,-0.524110198
18455,,Sarum Road,,Winchester,Hampshire,SO22 5HA,51.061302185058594,-1.338494301
18456,Chadwick Drive,Eaglestone West,,Milton Keynes,Buckinghamshire,MK6 5LR,52.02561569213867,-0.740350008
18457,,Queen Alexandra Road,,High Wycombe,Buckinghamshire,HP11 2TR,51.62603759765625,-0.755028188
18458,,Poppy Lane,,Croydon,Surrey,CR9 8AB,51.382301330566406,-0.056337729
18459,,Albemarle Road,,Beckenham,Kent,BR3 5HS,51.40833282470703,-0.004345959
18462,,312 Fulwood Road,,Sheffield,,S10 3BR,53.37451934814453,-1.517261028
18463,The Avenue,Cliftonville,,Northampton,Northamptonshire,NN1 5DR,52.23614501953125,-0.874308646
18464,,Herringston Road,,Dorchester,Dorset,DT1 2DR,50.70102310180664,-2.441853046
18466,22 Somerset Road,Edgbaston,,Birmingham,West Midlands,B15 2QQ,52.45758819580078,-1.932878017
18467,,St. Marys Square,,Bury St. Edmunds,Suffolk,IP33 2AA,52.24007797,0.719400406
18468,,Queens Road,,Harrogate,North Yorkshire,HG2 0HF,53.987571716308594,-1.547796488
18469,,Birkby Hall Road,,Huddersfield,West Yorkshire,HD2 2BL,53.65835189819336,-1.798727751
18470,,Meadowside,,Lancaster,Lancashire,LA1 3RH,54.04319763183594,-2.795393229
18471,,Nettleham Road,,Lincoln,Lincolnshire,LN2 1QU,53.23808288574218,-0.533085406
18472,Cavell Drive,Uplands Park Road,,Enfield,Middlesex,EN2 7PR,51.65922546386719,-0.101346962
18476,46 Harvey Road,,,Guildford,Surrey,GU1 3LX,51.23574829101562,-0.564204454
18500,,15-17 Fairfax Drive,,Westcliff-on-Sea,Essex,SS0 9AG,51.55002975463867,0.6997600793838501
18501,Gisburn Park Estate,Gisburn,,Clitheroe,Lancashire,BB7 4HX,53.94332885742188,-2.267543077
18526,Haslar Road,,,Gosport,Hampshire,PO12 2AA,50.78601837158203,-1.124631882
18564,Peaks Lane,,,Grimsby,South Humberside,DN32 9RP,53.55105209350586,-0.073805079
18620,Longcroft Lane,Felden,,Hemel Hempstead,Hertfordshire,HP3 0BN,51.73241043,-0.498069763
18621,Tottingworth Park,Broad Oak,,Heathfield,East Sussex,TN21 8UN,50.98192596435546,0.3065970540046692
18622,,Ticehurst,,Wadhurst,East Sussex,TN5 7HU,51.04955291748047,0.398391992
18624,Stump Lane,Springfield Green,,Chelmsford,Essex,CM1 7SJ,51.74317932128906,0.4877757132053375
18625,21 Woodbourne Road,Edgbaston,,Birmingham,West Midlands,B17 8BY,52.47169494628906,-1.95580709
18626,Prestons Road,Hayes,,Bromley,Kent,BR2 7AS,51.37308120727539,0.014595352
18627,Priory Lane,Roehampton,,London,,SW15 5JJ,51.46253967285156,-0.251494706
18628,,Chobham Road,Knaphill,Woking,Surrey,GU21 2QF,51.31982422,-0.622614145
18629,Priory Hospital Southampton,Marchwood Park,Marchwood,Southampton,Hampshire,SO40 4WU,50.87963104248047,-1.447607636
18630,,Rappax Road,Hale,Altrincham,Cheshire,WA15 0NU,53.36557769775391,-2.331951857
18631,Rosemary Lane,Bartle,,Preston,Lancashire,PR4 0HB,53.80076599121094,-2.783842564
18632,Grovelands House,The Bourne,Southgate,London,,N14 6RA,51.63027191162109,-0.120334625
18634,,100 Wilmslow Road,,Cheadle,Cheshire,SK8 3DG,53.37493896484375,-2.221472025
18635,,Middleton St George,,Darlington,Durham,DL2 1TS,54.51710891723633,-1.433142424
18653,,Heath House Lane,Stapleton,Bristol,Avon,BS16 1EQ,51.47973633,-2.566757441
18656,c/o Care UK - Level C,Southampton NHS Treatment Centre,Brintons Terrace,Southampton,Hampshire,SO14 0YG,50.912391662597656,-1.397062421
18660,c/o Care UK,King George Hospital,Barley Lane,Ilford,Essex,IG3 8YB,51.580543518066406,0.1121212840080261
18758,14 Park Road,,,Tarporley,Cheshire,CW6 0AP,53.15922164916992,-2.66672349
18761,,Morton Park,,Darlington,Durham,DL1 4PL,54.52036285400391,-1.504655719
18765,,Coleshill Street,,Birmingham,West Midlands,B4 7ET,52.48664093017578,-1.890937567
18789,Huntercombe Lane South,Taplow,,Maidenhead,Berkshire,SL6 0PQ,51.51879501342773,-0.659095943
18791,Ivetsey Bank,Wheaton Aston,,Stafford,Staffordshire,ST19 9QT,52.69441223144531,-2.233263016
18802,Foxcote Avenue,Peasedown St John,,Bath,,BA2 8SF,51.31171035766602,-2.41733408
18807,,100 Drake Way,,Reading,,RG2 0NE,51.42933273,-0.976393759
18819,164-178 Cromwell Road,,,London,,SW5 0TU,51.49510574,-0.19137083
18826,The Warren,,,Ashtead,Surrey,KT21 2SB,51.30434036254882,-0.303277969
18827,Swallowscroft,Wensley Road,,Reading,Berkshire,RG1 6UZ,51.44454956054688,-0.988298833
18829,Penventinnie Lane,,,Truro,Cornwall,TR1 3UP,50.26794434,-5.093553543
18830,Wigan Road,Euxton,,Chorley,Lancashire,PR7 6DY,53.66095352172852,-2.676298857
18831,Milton Way,Bretton,,Peterborough,Cambridgeshire,PE3 9AQ,52.57646942138672,-0.297534764
18832,Midgery Lane,Fulwood,,Preston,Lancashire,PR2 9SZ,53.78632354736328,-2.684020996
18833,St. Vincents Road,,,Torquay,Devon,TQ1 4UP,50.47509766,-3.541743517
18834,Bodenham,,,Salisbury,Wiltshire,SP5 4EW,51.03274154663086,-1.763433814
18836,46 Tupwood Lane,,,Caterham,Surrey,CR3 6DP,51.27355575561523,-0.079138406
18837,19 Lancaster Road,,,Salford,Greater Manchester,M6 8AQ,53.49230194091797,-2.321049213
18838,Oaks Place,Mile End Road,,Colchester,Essex,CO4 5XR,51.90629959106445,0.8949929475784301
18839,Thorne Road,,,Doncaster,South Yorkshire,DN2 5TH,53.53036499023438,-1.111603141
18840,,Benslow Lane,,Hitchin,Hertfordshire,SG4 9QZ,51.95029830932617,-0.262984931
18841,Renacres Lane,Halsall,,Ormskirk,Lancashire,L39 8SE,53.60013198852539,-2.950682878
18842,Rowley Avenue,,,Stafford,Staffordshire,ST17 9AQ,52.79478073120117,-2.126266718
18843,Lawn Lane,,,Chelmsford,Essex,CM1 7GU,51.75337219238281,0.4846121370792389
18844,High Wych Road,,,Sawbridgeworth,Hertfordshire,CM21 0HH,51.80709457397461,0.1304715871810913
18846,Colman Hill,"Colman Hill, Halesowen",,Halesowen,West Midlands,B63 2AH,52.45781707763672,-2.076659679
18847,Tewkesbury Road,Longford,,Gloucester,Gloucestershire,GL2 9WH,51.88044357299805,-2.24241662
18848,Woodland Hospital,Rothwell Road,,Kettering,Northamptonshire,NN16 8XF,52.41162872314453,-0.768490613
18850,,Oxford Road,,Banbury,Oxfordshire,OX16 9FG,52.05352401733398,-1.336649418
18852,,Boston West Business Park,Sleaford Road,Boston,Lincolnshire,PE21 8EG,52.97591782,-0.033514805
18853,Bluebeck Drive,Shipton Road,,York,North Yorkshire,YO30 5RA,53.97785949707031,-1.113929391
18854,,The Silverlink North,,Newcastle Upon Tyne,,NE27 0BY,55.0240593,-1.510449052
18855,Smeaton Close,Blakelands,,Milton Keynes,Buckinghamshire,MK14 5HR,52.07442474365234,-0.742682993
18857,Gisburn Park Estate,Gisburn,,Clitheroe,Lancashire,BB7 4HX,53.94332885742188,-2.267543077
18863,Woodthorpe Hospital,748 Mansfield Road,Woodthorpe,Nottingham,Nottinghamshire,NG5 3FZ,52.99048233032226,-1.138613939
18864,,53 Church Road,Edgbaston,Birmingham,,B15 3SJ,52.467079162597656,-1.922581673
18866,Crank Road,Crank,,St. Helens,Merseyside,WA11 7RS,53.48455429077149,-2.750059366
18875,27 Tooley Street,,,London,,SE1 2PR,51.50632858276367,-0.0858787
18887,Goddards Green Road,Benenden,,Cranbrook,Kent,TN17 4AX,51.086647033691406,0.6161140203475952
18909,The Horder Centre,St. Johns Road,,Crowborough,East Sussex,TN6 1XP,51.06367492675781,0.1427993178367614
39920,Evesham Community Hospital,Waterside,,Evesham,Worcestershire,WR11 1JT,52.08626174926758,-1.948670626
39921,Malvern Community Hospital,185 Worcester Road,,Malvern,Worcestershire,WR14 1EX,52.12385177612305,-2.322845221
39923,Princess of Wales Community Hospital,Stourbridge Road,,Bromsgrove,Worcestershire,B61 0BB,52.34413909912109,-2.055647612
39930,,Gravel Hill,,Ludlow,Shropshire,SY8 1QX,52.37365723,-2.714434147
39931,,Northgate,,Bridgnorth,Shropshire,WV16 4EU,52.53790283203125,-2.421488047
39932,Union Street,,,Bishop's Castle,Shropshire,SY9 5AJ,52.49309539794922,-2.999591112
39933,,Claypit Street,,Whitchurch,Shropshire,SY13 1NT,52.97274017333984,-2.679201841
39954,Glen Road,Plaistow,,London,,E13 8SL,51.52277755737305,0.034731604
39955,,Whitechapel Road,Whitechapel,London,,E1 1FR,51.51869965,-0.060150061
39957,Bancroft Road,,,London,,E1 4DG,51.5250473,-0.04219196
39964,Whipps Cross Road,,,London,,E11 1NR,51.57883071899414,0.002652787
39966,St Bartholomewâ€™s Hospital,West Smithfield,,City of London,,EC1A 7BE,51.51774978637695,-0.10038992
39967,Glen Road,Plaistow,,London,,E13 8SL,51.52277755737305,0.034731604
39970,Royal Surrey County Hospital,Egerton Road,,Guildford,Surrey,GU2 7XX,51.24101638793945,-0.60744828
39985,Higher Kingston,,,Yeovil,Somerset,BA21 4AT,50.94484711,-2.634698391
39987,Marlborough Street,,,Bristol,Avon,BS2 8HW,51.45918655395508,-2.596124649
39991,Southwell Street,,,Bristol,Avon,BS2 8EG,51.45913696289063,-2.599376917
39992,Lower Maudlin Street,,,Bristol,Avon,BS1 2LX,51.45843887329102,-2.594531536
39993,Lower Maudlin Street,,,Bristol,Avon,BS1 2LY,51.45861816,-2.595181704
39995,Upper Maudlin Street,,,Bristol,Avon,BS2 8BJ,51.45775223,-2.597314835
40002,South Bristol NHS Community Hospital,Hengrove Promenade,,Bristol,,BS14 0DB,51.41099548339844,-2.584929228
40004,"Grange Road, Uphill",,,Weston-Super-Mare,Avon,BS23 4TQ,51.32234191894531,-2.971384764
40006,Lowes Bridge,,,Torquay,Devon,TQ2 7AA,50.48232269287109,-3.553790569
40049,Greenswood Road,,,Brixham,Devon,TQ5 9HW,50.38945007324218,-3.513809919
40051,Barton Terrace,,,Dawlish,Devon,EX7 9DH,50.58058929,-3.474774122
40052,Jetty Marsh Road,,,Newton Abbot,Devon,TQ12 2TS,50.53936386108398,-3.612241745
40053,Church Street,,,Paignton,Devon,TQ3 3AG,50.43714523,-3.568786621
40054,Mill Lane,,,Teignmouth,Devon,TQ14 9BQ,50.54837417602539,-3.511145592
40055,Coronation Road,,,Totnes,Devon,TQ9 5GH,50.43277740478516,-3.68417573
40058,,Duckworth Lane,,Bradford,West Yorkshire,BD9 6RJ,53.80598449707031,-1.794681668
40059,,Little Horton Lane,,Bradford,West Yorkshire,BD5 0NA,53.78370285,-1.760688424
40060,,98 Kirkgate,,Shipley,West Yorkshire,BD18 3LT,53.83343505859375,-1.786266565
40061,,450 Harrogate Road,Eccleshill,Bradford,West Yorkshire,BD10 0JE,53.82307815551758,-1.712111712
40067,,Prittlewell Chase,,Westcliff-on-Sea,Essex,SS0 0RY,51.55383682250977,0.6886317729949951
40069,"Crescent Drive, Shenfield",,,Brentwood,Essex,CM15 8DR,51.62355041503906,0.3164149820804596
40073,,Pond Street,,London,,NW3 2QG,51.55322266,-0.165309235
40077,Granville Road,,,London,Greater London,N12 0JE,51.60545731,-0.176605821
40083,Burnt Oak Broadway,,,Edgware,Middlesex,HA8 0AD,51.60649490356445,-0.271227777
40087,Brockley Hill,,,Stanmore,Middlesex,HA7 4LP,51.63256454467773,-0.31042096
40088,45-51 Bolsover Street,,,London,Greater London,W1W 5AQ,51.52331161499024,-0.143274531
40091,,Sterling Way,,London,,N18 1QX,51.61309432983398,-0.07373514
40095,,Pield Heath Road,,Uxbridge,Middlesex,UB8 3NN,51.52607727050781,-0.461160362
40096,,Rickmansworth Road,,Northwood,Middlesex,HA6 2RN,51.61492538452149,-0.445808202
40109,Galsworthy Road,,,Kingston Upon Thames,Surrey,KT2 7QB,51.41482543945313,-0.282609493
40115,,,Parkfield Drive,Taunton,Somerset,TA1 5DA,51.01157760620117,-3.121679544
40130,Williams Avenue,,,Dorchester,Dorset,DT1 2JY,50.71294403076172,-2.446922541
40154,,Moat Road,,Walsall,,WS2 9PS,52.58233261108398,-1.998909116
40162,Mill Lane,,,Wallasey,Merseyside,CH44 5UF,53.41566086,-3.045850515
40163,Arrowe Park Road,,Upton,Wirral,Merseyside,CH49 5PE,53.36962891,-3.096800804
40164,Clatterbridge Road,,Bebington,Wirral,Merseyside,CH63 4JY,53.33288955688477,-3.024122
40168,Warrington Road,,,Prescot,Merseyside,L35 5DR,53.42047500610352,-2.784939051
40169,Marshalls Cross Road,,,St. Helens,Merseyside,WA9 3DA,53.43953323364258,-2.718886852
40188,,Thomas Drive,,Liverpool,,L14 3PE,53.4111557,-2.89797473
40195,Alder Hey Children's Hospital,Eaton Road,,Liverpool,,L12 2AP,53.41930389404297,-2.897731543
40199,Leighton Hospital,Middlewich Road,,Crewe,Cheshire,CW1 4QJ,53.11769104003906,-2.475848436
40200,Winnington Hill,Winnington Hill,,Northwich,Cheshire,CW8 1AW,53.26189422607422,-2.519784451
40204,550 Wilmslow Road,Withington,,Manchester,Greater Manchester,M20 4BX,53.42977142333984,-2.230110168
40208,Raleigh Park,,,Barnstaple,Devon,EX31 4JB,51.09217453,-4.0504179
40220,,St. Brannocks Park Road,,Ilfracombe,Devon,EX34 8JF,51.20452117919922,-4.124407291
40221,Dobles Lane,,,Holsworthy,Devon,EX22 6JQ,50.81832885742188,-4.349647999
40223,,Abbotsham Road,,Bideford,Devon,EX39 3AG,51.01782608032226,-4.21274519
40224,Calf Street,,,Torrington,Devon,EX38 7BJ,50.9547348,-4.136956215
40225,Widgery Drive,,,South Molton,Devon,EX36 4DP,51.01707077026367,-3.839224815
40227,South Wing,Kempston Road,,Bedford,Bedfordshire,MK42 9DJ,52.12826538085938,-0.472480506
40228,32-34 Kimbolton Road,,,Bedford,Bedfordshire,MK40 2NS,52.14118957519531,-0.46176514
40233,,Lewsey Road,,Luton,Bedfordshire,LU4 0DZ,51.89414596557617,-0.474415451
40235,Long Street,Easingwold,,York,North Yorkshire,YO61 3JD,54.11840438842773,-1.189312696
40238,The York Hospital,Wigginton Road,,York,North Yorkshire,YO31 8HE,53.96895217895508,-1.084269643
40242,,Middlecave Road,,Malton,North Yorkshire,YO17 7NG,54.137245178222656,-0.806531847
40245,White Cross Road,Wilson Drive,Huntington Road,York,North Yorkshire,YO31 8JR,53.97165298461914,-1.076465845
40248,1a Nelsons Lane,,,York,North Yorkshire,YO24 1HD,53.943641662597656,-1.106458068
40261,Lancaster Park Road,,,Harrogate,North Yorkshire,HG2 7SX,53.99380874633789,-1.517558336
40262,Firby Lane,,,Ripon,North Yorkshire,HG4 2PR,54.13543701171875,-1.52717948
40267,The New Selby War Memorial Hospital,Doncaster Road,,Selby,North Yorkshire,YO8 9BX,53.77748871,-1.078320146
40270,Skipton Road,Steeton,,Keighley,West Yorkshire,BD20 6TD,53.89801788330078,-1.962679625
40274,Raines Road,Giggleswick,,Settle,North Yorkshire,BD24 0BN,54.06954956054688,-2.292192698
40275,Keighley Road,,,Skipton,North Yorkshire,BD23 2RJ,53.95569610595703,-2.018997669
40282,Western Bank,,,Sheffield,South Yorkshire,S10 2TH,53.38060379,-1.490613818
40289,Gayton Road,,,King's Lynn,Norfolk,PE30 4ET,52.75660705566406,0.4466931521892548
40303,Salisbury Road,Paulton,,Bristol,Avon,BS39 7SB,51.29867935180664,-2.493281364
40304,Combe Park,,,Bath,Avon,BA1 3NG,51.39167022705078,-2.39120388
40308,Longfleet Road,,,Poole,Dorset,BH15 2JB,50.72199249267578,-1.973102927
40330,Standing Way,,,Milton Keynes,Buckinghamshire,MK6 5LD,52.02637481689453,-0.73576653
40342,Turner Road,,,Colchester,Essex,CO4 5JL,51.91016387939453,0.8991968035697937
40343,Lexden Road,,,Colchester,Essex,CO3 3NB,51.88706970214844,0.8891493082046509
40344,78 Hedingham Road,,,Halstead,Essex,CO9 2DL,51.94809341430664,0.6379660367965698
40354,Bognor Regis War Memorial Hospital,Shripney Road,,Bognor Regis,,PO22 9PP,50.79336547851562,-0.675404251
40395,Portsmouth Road,,,Camberley,Surrey,GU16 7UJ,51.31966782,-0.742014408
40411,,69 Haven Road,Canford Cliffs,Poole,Dorset,BH13 7LN,50.69916534423828,-1.928103089
40413,Alumhurst Road,49 Alumhurst Road,,Bournemouth,Dorset,BH4 8EW,50.71672821044922,-1.904407144
40415,Ringwood Road,Parkstone,,Poole,Dorset,BH12 4NB,50.74971389770508,-1.940967441
40421,,69 Haven Road,Canford Cliffs,Poole,,BH13 7LN,50.69916534423828,-1.928103089
40423,,Jumpers Road,,Christchurch,Dorset,BH23 2JT,50.74319458007813,-1.792006493
40425,49 Alumhurst Road,Westbourne,,Bournemouth,Dorset,BH4 8EW,50.71672821044922,-1.904407144
40434,,42 Gravel Hill,,Wimborne,Dorset,BH21 1RR,50.78026580810546,-1.97830379
40437,Weymouth Community Hospital,3 Melcombe Avenue,,Weymouth,Dorset,DT4 7TB,50.62104034423828,-2.450997829
40438,,Radipole Lane,,Weymouth,Dorset,DT4 0QE,50.61524200439453,-2.480030775
40439,,Castle Road,Castletown,Portland,Dorset,DT5 1AX,50.56582260131836,-2.444808483
40440,,Hospital Lane,North Allington,Bridport,Dorset,DT6 5DR,50.74161148071289,-2.769914389
40441,,Milldown Road,,Blandford Forum,Dorset,DT11 7DD,50.863075256347656,-2.167970181
40442,,Abbey Walk,,Shaftesbury,Dorset,SP7 8BD,51.00472641,-2.200136185
40443,,Hospital Lane,,Sherborne,Dorset,DT9 3JU,50.949668884277344,-2.519826412
40444,,Streche Road,,Wareham,Dorset,BH20 4QQ,50.686988830566406,-2.116732836
40445,Victoria Hospital,Victoria Road,,Wimborne,Dorset,BH21 1ER,50.80220031738281,-1.995904088
40446,,Queens Road,,Swanage,Dorset,BH19 2ES,50.60551452636719,-1.961199522
40447,,Ringwood Road,,Ringwood,Dorset,BH24 2RR,50.81726455688477,-1.856563926
40450,Fairmile Road,,,Christchurch,Dorset,BH23 2JX,50.74516677856445,-1.790141106
40451,Castle Lane East,,,Bournemouth,Dorset,BH7 7DW,50.74748611450195,-1.820505619
40457,Monkton Village,Monkton Hall Hospital,,Jarrow,Tyne and Wear,NE32 5NN,54.96662521362305,-1.501260161
40466,Harton Lane,,,South Shields,Tyne and Wear,NE34 0PL,54.97120285,-1.428439617
40467,Primrose Terrace,,,Jarrow,Tyne and Wear,NE32 5HA,54.96765899658203,-1.485705614
40468,Wear Street,,,Jarrow,Tyne and Wear,NE32 3UX,54.98065948486328,-1.49196136
40470,St Clare Street,,,Penzance,Cornwall,TR18 2PF,50.12206649780274,-5.542964458
40471,Trelissick Road,,,Hayle,Cornwall,TR27 4JA,50.18036270141602,-5.42441082
40472,Treliske,,,Truro,Cornwall,TR1 3LQ,50.26656723022461,-5.094250202
40481,Aintree University Hospital,Lower Lane,,Liverpool,Merseyside,L9 7AL,53.46632766723633,-2.931089401
40499,Prescot Street,,,Liverpool,Merseyside,L7 8XP,53.40951157,-2.964794159
40504,,Crown Street,,Liverpool,,L8 7SS,53.39846420288086,-2.960062504
40560,Lower Lane,Fazakerley,,Liverpool,Merseyside,L9 7LJ,53.46640014648438,-2.930985451
40563,,Barley Lane,,Ilford,Essex,IG3 8YB,51.580543518066406,0.1121212840080261
40568,Rom Valley Way,,,Romford,Essex,RM7 0AG,51.56942749023438,0.1804053038358688
40570,,,Gawber Road,Barnsley,Yorkshire,S75 2EP,53.55913543701172,-1.499477983
40573,,Moorgate Road,,Rotherham,,S60 2UD,53.41397476196289,-1.342865467
40583,Calow,Top Road,,Chesterfield,Derbyshire,S44 5BL,53.2362175,-1.400036573
40644,44 Hyde Terrace,,,Leeds,West Yorkshire,LS2 9LN,53.80408096313477,-1.558837056
40646,Green Hill Road,,,Leeds,West Yorkshire,LS12 3QE,53.79990768432617,-1.612384319
40647,Seacroft Hospital,York Road,Seacroft,Leeds,West Yorkshire,LS14 6WB,53.80493927001953,-1.471471786
40648,Alma Street,,,Leeds,West Yorkshire,LS9 7BE,53.80526351928711,-1.524477124
40650,Royal Papworth Hospital,Cambridge Biomedical Campus,Papworth Road,Cambridge,Cambridgeshire,CB2 0AY,52.17238617,0.1361896246671676
40654,Ryhall Road,,,Stamford,Lincolnshire,PE9 1UA,52.65537262,-0.468735933
40658,Edith Cavell Campus,"Bretton Gate, Bretton",,Peterborough,Cambridgeshire,PE3 9GZ,52.58392333984375,-0.279370904
40663,Lowestoft Road,Gorleston,,Great Yarmouth,Norfolk,NR31 6LA,52.5616684,1.7179944515228271
40715,Hardwick Lane,Hardwick Lane,,Bury St. Edmunds,Suffolk,IP33 2QZ,52.23166275024414,0.7091901898384094
40719,,Hills Road,,Cambridge,Cambridgeshire,CB2 0QQ,52.17513275146485,0.1407532393932342
40720,,Robinson Way,,Cambridge,Cambridgeshire,CB2 0QQ,52.17326354980469,0.1394228637218475
40722,London Road,,,Royston,Hertfordshire,SG8 9EN,52.04151916503906,-0.022399887
40723,Radwinter Road,,,Saffron Walden,Essex,CB11 3HY,52.02359008789063,0.2562925219535828
40768,,Bulford,,Wellington,Somerset,TA21 8QQ,50.97667694091797,-3.227399349
40769,,Crewkerne Road,,Chard,Somerset,TA20 1NF,50.875,-2.952359438
40771,,Luttrell Way,,Minehead,Somerset,TA24 6DF,51.20011901855469,-3.461884022
40772,,North Road,Williton,Taunton,Somerset,TA4 4RA,51.16289520263672,-3.323194981
40773,,Bucklers Way,Old Wells Road,Shepton Mallet,Somerset,BA4 4PG,51.19057846069336,-2.562471867
40774,,Old Wells Road,,Glastonbury,Somerset,BA6 8JD,51.16048431396485,-2.699217319
40775,,Middle Path,,Crewkerne,Somerset,TA18 8BG,50.88012313842773,-2.797923803
40776,,Bernard Way,,South Petherton,Somerset,TA13 5EF,50.95209503173828,-2.798842669
40777,,Dancing Lane,,Wincanton,Somerset,BA9 9DQ,51.05875778198242,-2.418154716
40778,,Dene Road,Cotford St Luke,Taunton,Somerset,TA4 1DD,51.03759002685546,-3.182197571
40779,,Enos Way,,Frome,Somerset,BA11 2FH,51.23731994628906,-2.311554432
40782,Barrack Road,,,Exeter,Devon,EX2 5DW,50.71670913696289,-3.506666422
40783,Gladstone Road,,,Exeter,Devon,EX1 2ED,50.72439193725586,-3.514011145
40787,Cavell Way,.,,Okehampton,Devon,EX20 1PN,50.741920471191406,-3.99718833
40788,Keegan Close,,,Ottery St Mary,Devon,EX11 1DN,50.75011825561523,-3.291560888
40790,Kennedy Way,.,,Tiverton,Devon,EX16 6NT,50.90941238,-3.492953062
40791,Marlpits Lane,.,,Honiton,Devon,EX14 2DE,50.79493332,-3.186563015
40793,Chard Street,,,Axminster,Devon,EX13 5DU,50.78389739990234,-2.996254683
40794,Claremont Grove,,,Exmouth,Devon,EX8 2JN,50.62055206298828,-3.401594639
40795,General Hospital,,,Sidmouth,Devon,EX10 8EW,50.68161392211914,-3.239641666
40804,Rampton Hospital,,,Retford,Nottinghamshire,DN22 0PD,53.29038619995117,-0.838197649
40841,,Beckside,Gamston,Nottingham,Nottinghamshire,NG2 6PR,52.92256546020508,-1.09980166
40843,,Tremona Road,,Southampton,Hampshire,SO16 6YD,50.93302154541016,-1.435089946
40847,,Coxford Road,,Southampton,Hampshire,SO16 5YA,50.93526077270508,-1.434849381
40857,76 Wellesley Road,,,Sheffield,South Yorkshire,S10 2SZ,53.37979888916016,-1.493765235
40860,Glossop Road,,,Sheffield,South Yorkshire,S10 2JF,53.37835693359375,-1.493316293
40861,,Northern General Hospital,Herries Road,Sheffield,South Yorkshire,S5 7AU,53.40887832641602,-1.460876465
40865,Whitham Road,,,Sheffield,South Yorkshire,S10 2SJ,53.38025283813477,-1.494917393
40867,West Wing,Milton Road,,Portsmouth,Hampshire,PO3 6AD,50.80013657,-1.063932061
40868,Southwick Hill Road,Cosham,,Portsmouth,Hampshire,PO6 3LY,50.85029983520508,-1.069917679
40870,Bury Road,Gosport,,Gosport,Hampshire,PO12 3PW,50.79306411743164,-1.148066759
40884,London Road,Craven Road,,Reading,Berkshire,RG1 5AN,51.45102310180664,-0.959315777
40885,St Leonards Road,,,Windsor,Berkshire,SL4 3DP,51.47354507446289,-0.614692628
40918,Great Maze Pond,,,London,,SE1 9RT,51.50346374511719,-0.08680556
40919,,Westminster Bridge Road,,London,,SE1 7EH,51.49795913696289,-0.118890636
40922,Lewisham High Street,,,London,,SE13 6LH,51.45433044433594,-0.017036438
40924,,530 London Road,,Thornton Heath,Surrey,CR7 7YE,51.38912963867188,-0.108768813
40925,856 Brighton Road,856 Brighton Road,,Purley,Surrey,CR8 2YL,51.34074020385742,-0.114451215
40949,Blackshaw Road,,,London,Greater London,SW17 0QT,51.42668151855469,-0.175704554
40952,,Roehampton Lane,Roehampton,London,,SW15 5PN,51.45555114746094,-0.241715029
40965,Porthpean Road,,,St. Austell,Cornwall,PL26 6AD,50.32788467407226,-4.772349834
40966,St Thomas Road,,,Newquay,Cornwall,TR7 1RQ,50.41106414794922,-5.074197769
40968,Barncoose,,,Redruth,Cornwall,TR15 3ER,50.22938919067383,-5.244363308
40970,Boundary Road,,,Bodmin,Cornwall,PL31 2QT,50.467247009277344,-4.74114418
40971,Stratton,,,Bude,Cornwall,EX23 9BR,50.83075332641602,-4.517526627
40973,Link Road,,,Launceston,Cornwall,PL15 9JD,50.62839126586914,-4.359761238
40975,Warwick Hospital,Lakin Road,,Warwick,Warwickshire,CV34 5BW,52.28995132446289,-1.583200693
40976,,Arden Street,,Stratford-upon-Avon,Warwickshire,CV37 6NX,52.19526672363281,-1.713385463
40977,,Stratford Road,,Shipston-on-Stour,Warwickshire,CV36 4AX,52.06686019897461,-1.622537017
41013,Newcastle Road,,,Stoke-on-Trent,Staffordshire,ST4 6QG,53.00315856933594,-2.212051868
41017,,Plantation Lane,Mile Oak,Tamworth,Staffordshire,B78 3NG,52.62066650390625,-1.723852634
41019,Scartho Road,,,Grimsby,,DN33 2BA,53.54485702514648,-0.096213497
41021,Cliff Gardens,,,Scunthorpe,,DN15 7BH,53.58758544921875,-0.667584062
41028,Congleton War Memorial Hospital,Canal Road,,Congleton,Cheshire,CW12 3AR,53.15802764892578,-2.202660799
41030,Knutsford District and Community Hospital,Bexton Road,,Knutsford,Cheshire,WA16 0BT,53.30200576782226,-2.378590345
41031,,Victoria Road,,Macclesfield,Cheshire,SK10 3BL,53.26232528686523,-2.141059637
41035,The Countess Of Chester Health Park,,,Chester,Cheshire,CH2 1HJ,53.21153259277344,-2.902284384
41036,114 Chester Road,Whitby,,Ellesmere Port,Merseyside,CH65 6SG,53.26778030395508,-2.911025286
41042,,Denmark Hill,,London,,SE5 9RS,51.46807861328125,-0.093901388
41053,Mansfield Road,,,Sutton-In-Ashfield,Nottinghamshire,NG17 4JL,53.13455581665039,-1.233566165
41054,Stockwell Gate,,,Mansfield,Nottinghamshire,NG18 5QJ,53.14136123657226,-1.206266642
41058,Boundary Road,,,Newark,Nottinghamshire,NG24 4DE,53.06750869750977,-0.806145906
41066,Derriford Road,Crownhill,,Plymouth,Devon,PL6 8DH,50.41672897338867,-4.113671303
41067,Derriford Road,Crownhill,,Plymouth,Devon,PL6 8DH,50.41672897338867,-4.113671303
41070,Clifford Bridge Road,,,Coventry,Warwickshire,CV2 2DX,52.42121505737305,-1.438388586
41072,Barby Rd,,,Rugby,Warwickshire,CV22 5PX,52.36527633666992,-1.259016037
41077,151 Park Road,151 Park Road,,London,Greater London,N8 8JD,51.58341979980469,-0.13102442
41078,Magdala Avenue,Magdala Avenue,,London,,N19 5NF,51.56647872924805,-0.139077902
41083,The Cassel Hospital,1 Ham Common,,Richmond,Surrey,TW10 7JF,51.43291091918945,-0.308085978
41084,,Kentigern Drive,,Crowthorne,Berkshire,RG45 7EG,51.36908721923828,-0.780985534
41089,,,,Oswestry,Shropshire,SY10 7AG,52.88452911376953,-3.03311491
41093,Wolverhampton Road,Heath Town,,Wolverhampton,West Midlands,WV10 0QP,52.59972763061523,-2.095540524
41116,,Kayll Road,,Sunderland,,SR4 7TP,54.90221024,-1.410297871
41117,,Queen Alexandra Road,,Sunderland,,SR2 9HP,54.88906860351562,-1.381056666
41122,,,Stonebow Road,Hereford,Herefordshire,HR1 2BN,52.05873489379882,-2.707180262
41123,"Bromyard Community Hospital, Wye Valley NHS Trust",Hillside Road,,Bromyard,,HR7 4QN,52.18632888793945,-2.506896019
41126,"Leominster Community Hospital, Wye Valley NHS Trust",South Street,,Leominster,,HR6 8JH,52.22218704223633,-2.739360332
41127,"Ross on Wye Community Hospital, Wye Valley NHS Trust",Alton Street,,Ross-on-Wye,Herefordshire,HR9 5AD,51.912574768066406,-2.583386898
41134,College Street,,,Nuneaton,Warwickshire,CV10 7DJ,52.51258469,-1.478424549
41145,Hilton Road,,,Stoke-on-Trent,Staffordshire,ST4 6RR,53.00043869018554,-2.208298683
41147,,Colney Lane,,Norwich,Norfolk,NR4 7UY,52.61754227,1.2211893796920776
41155,Mill Road,Mill Road,,Cromer,Norfolk,NR27 0BQ,52.92356491088867,1.3091745376586914
41161,,Stott Lane,,Salford,,M6 8HD,53.48754883,-2.323409557
41197,Minerva Road,Farnworth,,Bolton,Lancashire,BL4 0JR,53.55396270751953,-2.429878712
41222,Fountain St,,,Ashton Under Lyne,Lancashire,OL6 9RW,53.49153518676758,-2.071418524
41224,,Drayton High Road,,Norwich,Norfolk,NR6 5BE,52.65953063964844,1.250886321
41225,Bowthorpe Road,,,Norwich,Norfolk,NR2 3TD,52.63298034667969,1.2625895738601685
41226,Northgate Street,,,Great Yarmouth,Norfolk,NR30 1BU,52.61719512939453,1.730520725250244
41228,Defiant Precinct,Church Street,,Attleborough,Norfolk,NR17 2QE,52.51786422729492,1.0174452066421509
41230,Carlton Court Hospital,St. Peters Road,,Carlton Colville,Suffolk,NR33 8AG,52.45330047607422,1.6967617273330688
41246,General Hospital,,,Marlborough,Wiltshire,SN8 3HL,51.41540908813477,-1.704911351
41247,,Marlborough Road,,Swindon,Wiltshire,SN3 6BB,51.53853225708008,-1.727185845
41249,,Rowden Hill,,Chippenham,Wiltshire,SN15 2AJ,51.45254135131836,-2.126694918
41250,,Adcroft Street,,Trowbridge,Wiltshire,BA14 8PH,51.32529830932617,-2.209868193
41260,,Aldermaston Road,,Basingstoke,Hampshire,RG24 9NA,51.28063583374024,-1.109903693
41261,,Romsey Road,,Winchester,Hampshire,SO22 5DG,51.06171035766602,-1.329156041
41262,,Charlton Road,,Andover,Hampshire,SP10 3LB,51.21574020385742,-1.494678259
41265,Darenth Wood Road,,,Dartford,Kent,DA2 8DA,51.43495178222656,0.2586592435836792
41268,Pensnett Road,,,Dudley,West Midlands,DY1 2HQ,52.50294876098633,-2.118503094
41269,Tipton Road,,,Dudley,West Midlands,DY1 4SE,52.52050018310546,-2.072715282
41270,Vicarage Road,,,Stourbridge,West Midlands,DY8 4JB,52.46540832519531,-2.146383286
41302,Newtown Road,,,Carlisle,Cumbria,CA2 7HY,54.89650344848633,-2.957777023
41311,Penrith Community Hospital,Bridge Lane,,Penrith,,CA11 8HX,54.65699768066406,-2.743259668
41316,,Isel Road,,Cockermouth,Cumbria,CA13 9HT,54.66681289672852,-3.358580589
41341,,Rothwell Road,,Kettering,Northamptonshire,NN16 8UZ,52.401145935058594,-0.741529107
41354,Odstock Road,,,Salisbury,Wiltshire,SP2 8BJ,51.04394912719727,-1.789808512
41366,New Park Road,New Park Road,,Devizes,Wiltshire,SN10 1EF,51.35458374023438,-1.993215919
41381,77 London Road,,,Kettering,Northamptonshire,NN15 7PW,52.39410018920898,-0.722185016
41384,Irthlingborough Road,,,Wellingborough,Northamptonshire,NN8 1LP,52.29767227172852,-0.683344126
41403,Great Ormond Street,,,London,Greater London,WC1N 3JH,51.52220916748047,-0.119909525
41405,Kilton Hill,Blyth Road,,Worksop,Nottinghamshire,S81 0BD,53.31655502319336,-1.110268831
41406,Thorne Road,,,Doncaster,Yorkshire,DN2 5LT,53.53078461,-1.108923912
41408,Adwick Road,,,Mexborough,,S64 0AZ,53.49981689453125,-1.284931421
41409,North Road,,,Retford,Nottinghamshire,DN22 7XF,53.3254509,-0.950618625
41412,162 City Road,,,London,,EC1V 2PD,51.52724456787109,-0.089874275
41431,St Georges,Long Leys Road,,LINCOLN,Lincolnshire,LN1 1EE,53.24283599853516,-0.557784677
41437,Peter Hodgkinson Centre,Lincoln County Hospital,Greetwell Road,Lincoln,Lincolnshire,LN2 5QY,53.23357772827149,-0.51962018
41438,Manthorpe Centre,Grantham Hospital Site,,101 Manthorpe Road,,NG31 8DG,52.92108917236328,-0.640699148
41440,Windmill Road,,,Gillingham,Kent,ME7 5NY,51.379859924316406,0.542076051
41475,,Holtye Road,,East Grinstead,West Sussex,RH19 3DZ,51.13507461547852,-0.002886042
41493,,Princess Royal University Hospital,Farnborough Common,Orpington,Kent,BR6 8NY,51.36606979370117,0.056682058
41494,Queen Elizabeth Hospital,Stadium Road,,London,,SE18 4QH,51.47819137573242,0.050057109
41495,Shooters Hill,Woolwich,,London,,SE18 3RG,51.46857452392578,0.064125076
41496,,Frognal Avenue,,Sidcup,Kent,DA14 6LT,51.41904067993164,0.1016753315925598
41504,Fulham Road,,,London,Greater London,SW3 6JJ,51.49056243896485,-0.172550783
41505,Downs Road,,,Sutton,Surrey,SM2 5PT,51.34347915649414,-0.19110027
41507,,Steelhouse Lane,,Birmingham,,B4 6NH,52.48489761352539,-1.8937397
41545,369 Fulham Road,,,London,,SW10 9NH,51.48431015014648,-0.181629702
41556,,Hamstel Road,,Harlow,Essex,CM20 1QX,51.77153015136719,0.085471295
41569,Homerton Row,Homerton Row,,London,Greater London,E9 6SR,51.55063247680664,-0.046084356
41571,61 Glenburnie Road,,,London,,SW17 7DJ,51.43735885620117,-0.172358453
41573,,South Worple Way,Barnes,London,,SW14 8SU,51.46709060668945,-0.256503701
41576,Red Lion Road,Red Lion Road,,Surbiton,Surrey,KT6 7QU,51.37908554077149,-0.288502634
41607,Sheriff Hill,,,Gateshead,Tyne and Wear,NE9 6SX,54.93938446044922,-1.580765486
41608,Dunston Hill,,,Gateshead,Tyne and Wear,NE11 9QT,54.94639587402344,-1.659452677
41611,Great George Street,,,Leeds,West Yorkshire,LS1 3EX,53.80146026611328,-1.552119255
41612,Clarendon Way,,,Leeds,West Yorkshire,LS2 9LU,53.80337524414063,-1.555701375
41614,Newall Carr Road,,,Otley,West Yorkshire,LS21 2LY,53.91436004638672,-1.700584412
41615,Beckett Street,,,Leeds,West Yorkshire,LS9 7TF,53.80687332,-1.520343781
41616,York Road,,,Leeds,West Yorkshire,LS14 6UH,53.80659103393554,-1.470889211
41618,Chapeltown Road,,,Leeds,West Yorkshire,LS7 4SA,53.82263946533203,-1.529794812
41635,Corporation Street,,,Stafford,Staffordshire,ST16 3SR,52.81059265136719,-2.109073639
41723,,The Avenue,,Leigh,Lancashire,WN7 1HS,53.50441742,-2.512239456
41724,,Wigan Lane,,Wigan,Lancashire,WN1 2NN,53.55774307250977,-2.629076481
41728,,Hall Lane,Appley Bridge,Wigan,Lancashire,WN6 9EP,53.58981323242188,-2.711495161
41735,The Woodlands,Bristol Road South,Northfield,Birmingham,West Midlands,B31 2AP,52.42113876342773,-1.960812807
41754,Mindelsohn Way,Edgbaston,,Birmingham,,B15 2WB,52.45014953613281,-1.941761851
41804,University College Hospital,235 Euston Road,,London,,NW1 2BU,51.5248909,-0.136896163
41806,University College Hospital at Westmoreland Street,16-18 Westmoreland Street,,London,,W1G 8PH,51.51958084106445,-0.149753928
41807,60 Great Ormond Street,,,London,,WC1N 3HR,51.52173996,-0.121384807
41822,,Queen Square,,London,,WC1N 3BG,51.52217102050781,-0.121986859
41823,Mortimer Market Centre,Mortimer Market,Off Capper Street,London,,WC1E 6JD,51.52315902709961,-0.135395616
41826,,Fulbourn Hospital,Fulbourn,Cambridge,,CB21 5EF,52.18449020385742,0.1883153766393661
41841,Hill End Road,,,Harefield,Middlesex,UB9 6JH,51.60673141479492,-0.482753932
41842,Sydney Street,,,London,Greater London,SW3 6NP,51.48974227905274,-0.170840546
41862,Freeman Road,High Heaton,,Newcastle Upon Tyne,Tyne and Wear,NE7 7DN,55.00277709960938,-1.593362212
41863,Queen Victoria Road,New Victoria Wing,Royal Victoria Infirmary,Newcastle Upon Tyne,,NE1 4LP,54.98021697998047,-1.618839502
41865,Richardson Road,,,Newcastle Upon Tyne,Tyne and Wear,NE2 4AZ,54.98150253295898,-1.62270236
41871,Queen Victoria Road,New Victoria Wing,Royal Victoria Infirmary,Newcastle Upon Tyne,,NE1 4LP,54.98021697998047,-1.618839502
41887,Sandford Road,,,Cheltenham,Gloucestershire,GL53 7AN,51.89212417602539,-2.07186842
41889,,Great Western Road,,Gloucester,Gloucestershire,GL1 3NN,51.86638259887695,-2.232058525
41898,Moore Road,Bourton-on-The-Water,,Cheltenham,Gloucestershire,GL54 2AZ,51.88631057739258,-1.756776094
41929,Cobalt House,Thirlstaine Road,,Cheltenham,,GL53 7AS,51.88847351074218,-2.069857597
41931,Malmesbury Road,,,Tetbury,Gloucestershire,GL8 8XB,51.63517761230469,-2.154729366
41947,Infirmary Square,,,Berwick-upon-Tweed,Northumberland,TD15 1LT,55.77328872680664,-2.004963875
41948,Infirmary Drive,South Road,,Alnwick,Northumberland,NE66 2NS,55.41094207763672,-1.697199821
41954,Corbridge Road,,,Hexham,Northumberland,NE46 1QJ,54.97036743164063,-2.095677853
41956,Westgate,,,Haltwhistle,Northumberland,NE49 9AJ,54.97010803222656,-2.462919712
41957,Thoroton Street,,,Blyth,Northumberland,NE24 1DX,55.12787628173828,-1.514920115
41958,"Unit 7/8, Silver Fox Way",Cobalt Business Park,,Newcastle Upon Tyne,Tyne and Wear,NE27 0QJ,55.02046203613281,-1.508162379
41960,Woodhorn Lane,,,Ashington,Northumberland,NE63 9JJ,55.18431091308594,-1.546586394
41961,Whitton Bank Road,Rothbury,,Morpeth,Northumberland,NE65 7RW,55.30677414,-1.913899302
41969,Rake Lane,,,North Shields,,NE29 8NH,55.02524185180664,-1.467324495
41980,,London Road,,Derby,Derbyshire,DE1 2QY,52.91431808,-1.468631864
41982,Royal Derby Hospital,,,Derby,Derbyshire,DE22 3NE,52.91155624389648,-1.514264703
41984,,Old Road,Headington,Oxford,Oxfordshire,OX3 7LE,51.75033569335938,-1.214694381
41986,,Oxford Road,,Banbury,Oxfordshire,OX16 9AL,52.05440902709961,-1.337175965
41987,,Headley Way,Headington,Oxford,Oxfordshire,OX3 9DU,51.76387405395508,-1.219792008
42026,Guildford Road,,,Chertsey,Surrey,KT16 0PZ,51.37783432006836,-0.527046025
42027,London Road,,,Ashford,Middlesex,TW15 3AA,51.44402313232422,-0.472798347
42109,Alford Road,Brotton,,Saltburn-By-The-Sea,Cleveland,TS12 2FF,54.56526947021485,-0.936341345
42129,Friarage Hospital,,,Northallerton,North Yorkshire,DL6 1JG,54.34233474731445,-1.430518746
42130,Northgate,Guisborough,,Guisborough,Cleveland,TS14 6HZ,54.53883743286133,-1.052146792
42131,Marton Road,,,Middlesbrough,Cleveland,TS4 3BW,54.55175781,-1.214789987
42182,Ashton Road,,,Lancaster,Lancashire,LA1 4RP,54.04273223876953,-2.799217224
42186,Dalton Lane,,,Barrow-In-Furness,Cumbria,LA14 4LF,54.13640213012695,-3.20788455
42187,,Burton Rd,,Kendal,,LA9 7RG,54.30670928955078,-2.732536793
42192,Bloomburg Street,,,London,,SW1V 2RH,51.49234008789063,-0.135774717
42194,Pield Heath Road,Hillingdon Hospital,,Uxbridge,Middlesex,UB8 3NN,51.52607727050781,-0.461160362
42210,108 Landor Road,108 Landor Road,,London,,SW9 9NU,51.46531677246094,-0.122234575
42211,,Denmark Hill,,London,,SE5 8AZ,51.46873856,-0.091426156
42212,Monks Orchard Road,Monks Orchard Road,,"Beckenham, London",,BR3 3BX,51.38092041015625,-0.029753098
42248,Queen Street,,,Withernsea,North Humberside,HU19 2QB,53.72853469848633,0.034033589
42256,,Wheeler Street,,Hull,,HU3 5QE,53.74201202392578,-0.384643078
42257,,Birkdale Way,Newbridge Road,Hull,,HU9 2BH,53.74993896484375,-0.308325261
42259,,Hauxwell Road,,Hull,,HU8 0RB,53.77357864379882,-0.286600292
42260,,St Mary's Lane,,Beverley,,HU17 7AS,53.84576416015625,-0.434097558
42262,,Gladstone Street,Anlaby Road,Hull,,HU3 2RT,53.74435806274414,-0.362185776
42268,Southmead Road,Westbury-on-Trym,,Bristol,Avon,BS10 5NB,51.49481201171875,-2.591000319
42279,,Frenchay Park Road,,Bristol,Avon,BS16 1LE,51.49660110473633,-2.528403997
42280,,Lodge Road,Kingswood,Bristol,Avon,BS15 1LF,51.46889114379882,-2.516105652
42316,Midford Road,,,Bath,,BA2 5RP,51.35817337036133,-2.372606993
42324,Manor Road,Fishponds,,Bristol,,BS16 2EW,51.48315048217773,-2.538818598
42330,,Lodge 3,,Devizes,Wiltshire,SN10 5DS,51.33915328979492,-1.981288552
42343,Marmalade Lane,Brislington,,Bristol,,BS4 5BJ,51.43127059936523,-2.557540894
42347,Wrythe Lane,,,Carshalton,Surrey,SM5 1AA,51.38031387329102,-0.183627352
42348,Cotswold Road,,,Sutton,Surrey,SM2 5NF,51.34545516967773,-0.191079825
42349,Wrythe Lane,,,Carshalton,Surrey,SM5 1AA,51.38031387329102,-0.183627352
42351,Dorking Road,,,Epsom,Surrey,KT18 7EG,51.32551956176758,-0.273216724
42362,Kennington Road,Willesborough,,Ashford,Kent,TN24 0LZ,51.14148712158203,0.9162230491638184
42363,Buckland Hospital,Coombe Valley Road,,Dover,Kent,CT17 0HD,51.13205337524414,1.292394757270813
42366,Queen Elizabeth The Queen Mother Hospital,St Peters Road,,Margate,Kent,CT9 4AN,51.37805176,1.3893986940383911
42445,Kent and Canterbury Hospital,Ethelbert Road,,Canterbury,Kent,CT1 3NG,51.26658630371094,1.0870975255966189
42476,Holdforth Road,,,Hartlepool,Cleveland,TS24 9AH,54.70240020751953,-1.227821112
42477,Hardwick Road,,,Stockton-on-Tees,Cleveland,TS19 8PE,54.58285903930664,-1.347565413
42483,,Town Lane,,Southport,Merseyside,PR8 6PN,53.63356018066406,-2.978807688
42484,,Wigan Road,,Ormskirk,Lancashire,L39 2AZ,53.56462097167969,-2.871237278
42489,Botley Road,West End,,Southampton,Hampshire,SO30 3JB,50.92864990234375,-1.32337296
42508,Brook Lane,Sarisbury Green,Sarisbury,Fareham,Hampshire,SO31 7DQ,50.87100982666016,-1.275508523
42619,Parkbourn,Maghull,,Liverpool,Merseyside,L31 1HW,53.51867294311523,-2.915359974
42628,Miller Road,Ribbleton,,Preston,Lancashire,PR2 6LS,53.77164840698242,-2.657579422
42638,Thornton Road,,,Morecambe,Lancashire,LA4 5NN,54.07287216186523,-2.858618259
42643,Fairfield General Hospital,Rochdale Old Road,,Bury,Lancashire,BL9 7TD,53.60042572021485,-2.255607843
42644,Delaunays Road,Crumpsall,,Manchester,Greater Manchester,M8 5RB,53.51788711547852,-2.229486942
42645,Rochdale Road,,,Oldham,Lancashire,OL1 2JH,53.55325317382813,-2.121816158
42646,Whitehall Street,,,Rochdale,Lancashire,OL12 0NB,53.62428665161133,-2.160136938
42647,Birch Hill Hospital,Birch Road,Wardle,Rochdale,Lancashire,OL12 9QB,53.64026641845703,-2.121371508
42660,Anlaby Road,,,Hull,,HU3 2JZ,53.74443435668945,-0.358168989
42661,Castle Road,,,Cottingham,,HU16 5JQ,53.7767334,-0.444969475
42670,Greetwell Road,,,Lincoln,Lincolnshire,LN2 5QY,53.23357772827149,-0.51962018
42671,Sibsey Road,,,Boston,Lincolnshire,PE21 9QS,52.99112701416016,-0.009952853
42679,Leicestershire County and Rutland PCT,Thorpe Road,,Melton Mowbray,Leicestershire,LE13 1SJ,52.76593780517578,-0.877281189
42680,Leicester Royal Infirmary,Infirmary Square,,Leicester,Leicestershire,LE1 5WW,52.62678527832031,-1.135946155
42681,,Groby Road,,Leicester,Leicestershire,LE3 9QP,52.65436553955078,-1.180003047
42682,,Gwendolen Road,,Leicester,Leicestershire,LE5 4PW,52.62992858886719,-1.081749201
42686,,Hermitage Lane,,Maidstone,Kent,ME16 9QQ,51.27366256713867,0.4839882254600525
42705,Cotton Lane,,,Dartford,Kent,DA2 6AU,51.444786071777344,0.2453432977199554
42710,Tunbridge Wells Hospital,Pembury,,Tunbridge Wells,Kent,TN2 4QJ,51.14845275878906,0.3074845969676971
42713,Vicarage Road,,,Watford,Hertfordshire,WD18 0HB,51.64859008789063,-0.405277938
42714,Waverley Road,,,St. Albans,Hertfordshire,AL3 5PN,51.76007461547852,-0.343948692
42716,,Hillfield Road,,Hemel Hempstead,Hertfordshire,HP2 4AD,51.75083923339844,-0.468585968
42718,Coreys Mill Lane,,,Stevenage,Hertfordshire,SG1 4AB,51.92461013793945,-0.212711543
42720,Howlands,Howlands,,Welwyn Garden City,Hertfordshire,AL7 4HQ,51.78282928466797,-0.187686712
42721,,North Road,,Hertford,Hertfordshire,SG14 1LP,51.79648971557617,-0.088494822
42725,Stepping Hill Hospital,Poplar Grove,,Stockport,Cheshire,SK2 7JE,53.38378143310546,-2.132004976
42735,Bancroft Road,Mile End,,London,Greater London,E1 4DG,51.5250473,-0.04219196
42750,Woodrow Drive,,,Redditch,Worcestershire,B98 7UB,52.27977752685546,-1.912112117
42754,,Bewdley Road,,Kidderminster,Worcestershire,DY11 6RJ,52.38604736328125,-2.261150599
42755,Charles Hastings Way,Charles Hastings Way,,Worcester,Worcestershire,WR5 1DD,52.19151688,-2.179341078
42827,,Dryden Road,,Exeter,Devon,EX2 5AF,50.71540069580078,-3.506284475
42833,Franklyn Drive,,,Exeter,Devon,EX2 9HS,50.71241760253906,-3.549404383
42840,,Hospital Way,,Runcorn,Cheshire,WA7 2DA,53.32327270507813,-2.694666147
42841,Warrington Hospital,Lovely Lane,,Warrington,Cheshire,WA5 1QG,53.39397811889648,-2.610702753
42843,Honey End Lane,Tilehurst,,Reading,Berkshire,RG30 4EJ,51.44914627075195,-1.014733672
42864,Acre Street,,,Huddersfield,West Yorkshire,HD3 3EA,53.65547561645508,-1.816323161
42865,Salterhebble,,,Halifax,West Yorkshire,HX3 0PW,53.70482254,-1.857493639
42880,Nottingham City Hospital,Hucknall Road,,Nottingham,Nottinghamshire,NG5 1PB,52.99123764038086,-1.158413172
42881,Derby Road,,,Nottingham,Nottinghamshire,NG7 2UH,52.94380187988281,-1.185941815
42885,35 New Church Road,Aldrington Centre,,Hove,East Sussex,BN3 4AG,50.83014678955078,-0.184233904
42890,,Nevill Avenue,,Hove,,BN3 7HY,50.84204102,-0.189752132
42893,29 Wordsworth Road,Acre Day Hospital,,Worthing,West Sussex,BN11 3NJ,50.809532165527344,-0.382770181
42922,The Drive,,,Hailsham,,BN27 4EP,50.89032363891602,0.2633057236671448
42924,Carters Corner,Amberstone Hospital,,Hailsham,East Sussex,BN27 4HU,50.88183212280274,0.2755329012870789
42941,,Martyrs Avenue,,Crawley,West Sussex,RH11 7EJ,51.13195419311523,-0.189015657
42952,Trust Headquarters,West Park Hospital,Edward Pease Way,Darlington,,DL2 2TS,54.54348754882813,-1.591122627
42955,,Westfield Road,,Bishop Auckland,Durham,DL14 6AE,54.65484237670898,-1.680740595
42975,,Acklam Road,,Middlesbrough,,TS5 4EE,54.56212615966797,-1.257134318
42984,,Edward Pease Way,,Darlington,Durham,DL2 2TS,54.54348754882813,-1.591122627
42986,,Lancaster Road,,Hartlepool,,TS24 8LN,54.69326782226562,-1.212324739
42990,Cross Lane,,,Scarborough,North Yorkshire,YO12 6DN,54.29606246948242,-0.424973875
43002,Ryhope,,,Sunderland,Tyne and Wear,SR2 0NB,54.86393737792969,-1.369304776
43003,Northgate Hospital,,,Morpeth,Northumberland,NE61 3BP,55.18491363525391,-1.711871028
43004,Ferndene,Moor Road,,Prudhoe,Northumberland,NE42 5PB,54.94983291625977,-1.841312885
43005,St Georges Park,,,Morpeth,Northumberland,NE61 2NU,55.17856216430664,-1.682789326
43007,Jubilee Road,Gosforth,,Newcastle Upon Tyne,Tyne and Wear,NE3 3XT,55.00648880004882,-1.633084178
43010,Monkwearmouth Hospital,Newcastle Road,,Sunderland,Tyne and Wear,SR5 1NB,54.9245491,-1.386769295
43021,,The Countess Of Chester Health Park,Liverpool Road,Chester,Cheshire,CH2 1BQ,53.21154785,-2.898810625
43032,The Ridge,,,St. Leonards-on-Sea,East Sussex,TN37 7RD,50.88516616821289,0.5672841668128967
43033,Kings Drive,,,Eastbourne,East Sussex,BN21 2UD,50.78696823120117,0.2711216509342193
43034,,Holliers Hill,,Bexhill-on-Sea,Sussex,TN40 2DZ,50.85070419311523,0.4755111634731293
43044,Rotherham Doncaster and South Humber NHS Foundation Trust,Weston Road,"Tickhill Road, Balby",Doncaster,,DN4 8QN,53.49481582641602,-1.145960689
43046,Friarwood Lane,,,Pontefract,West Yorkshire,WF8 1PL,53.69047927856445,-1.308131099
43048,Pinderfields Hospital,Aberford Road,,Wakefield,West Yorkshire,WF1 4DG,53.692420959472656,-1.488540292
43050,,Halifax Road,,Dewsbury,West Yorkshire,WF13 4HS,53.70225524902344,-1.651861906
43057,Fieldhead Hospital,Ouchthorpe Lane,,Wakefield,West Yorkshire,WF1 3SP,53.69734191894531,-1.494039178
43065,Kendray Hospital,Doncaster Road,,Barnsley,South Yorkshire,S70 3RD,53.54695510864258,-1.454602242
43073,Eastern Road,,,Brighton,East Sussex,BN2 5BE,50.81946945,-0.118162483
43074,Elm Grove,,,Brighton,East Sussex,BN2 3EW,50.83045959472656,-0.115462601
43075,Eastern Road,,,Brighton,East Sussex,BN2 5BE,50.81946945,-0.118162483
43076,Eastern Road,,,Brighton,East Sussex,BN2 5BF,50.81879425048828,-0.117621705
43077,Lewes Road,,,Haywards Heath,West Sussex,RH16 4EX,50.99109649658203,-0.090267994
43107,Lyndon,,,West Bromwich,West Midlands,B71 4HJ,52.52807998657226,-1.988857388
43108,Dudley Road,Dudley Road,,Birmingham,West Midlands,B18 7QH,52.48863220214844,-1.932492137
43110,Moor Lane,,,Rowley Regis,West Midlands,B65 8DA,52.48070145,-2.052065849
43136,Whinney Heys Road,,,Blackpool,Lancashire,FY3 8NR,53.82060623168945,-3.015853167
43141,Pershore Road,,,Lytham St. Annes,Lancashire,FY8 1PB,53.74435043334961,-3.007234573
43162,,Pharos Street,,Fleetwood,Lancashire,FY7 6BE,53.92620086669922,-3.009324551
43182,Chorley and South Ribble Hospital,Preston Road,,Chorley,Lancashire,PR7 1PP,53.66609191894531,-2.636446476
43183,Sharoe Green Lane North,Fulwood,,Preston,Lancashire,PR2 9HT,53.79151153564453,-2.706829548
43192,Cockton Hill Road,,,Bishop Auckland,County Durham,DL14 6AD,54.65584945678711,-1.678531766
43195,Front Street,,,Chester Le Street,County Durham,DH3 3AT,54.85093688964844,-1.575047731
43198,North Road,,,Durham,County Durham,DH1 5TW,54.78850173950195,-1.593818784
43200,Shotley Bridge Hospital,Shotley Bridge,,Consett,County Durham,DH8 0NB,54.86908340454102,-1.842782617
43202,Hollyhurst Road,,,Darlington,County Durham,DL3 6HX,54.53037643432617,-1.563717365
43208,,Mandeville Road,Aylesbury,Buckinghamshire,,HP21 8AL,51.79797744750977,-0.801997542
43209,Wycombe Hospital,Queen Alexandra Road,,High Wycombe,Buckinghamshire,HP11 2TT,51.626441955566406,-0.753413498
43210,Amersham Hospital,Whielden Street,,Amersham,Buckinghamshire,HP7 0JD,51.66300201416016,-0.621415079
43211,,High Street,,Buckingham,,MK18 1NU,52.00158309936523,-0.985668004
43212,,East Street,,Thame,,OX9 3JT,51.74531555175781,-0.969993711
43213,,Hampden Road,,Chalfont St Peter,,SL9 9DR,51.60741043,-0.561796904
43214,,Victoria Road,,Marlow,,SL7 1DJ,51.57357025146485,-0.770415902
43223,Burnley General Hospital,Casterton Avenue,,Burnley,,BB10 2PQ,53.81042861938477,-2.227864027
43224,Haslingden Road,Haslingden Road,,Blackburn,Lancashire,BB2 3HH,53.73556518554688,-2.462701321
43226,Leeds Road,Leeds Rd,,Nelson,Lancashire,BB9 9SZ,53.83680725097656,-2.213328123
43227,Accrington Victoria Community Hospital,Haywood Road,,Accrington,Lancashire,BB5 6AS,53.75958633422852,-2.366906404
43228,,Chatburn Road,,,,BB7 4JX,53.88528823852539,-2.365998745
43293,385 Kingsbury Road,Erdington,,Birmingham,West Midlands,B24 9SA,52.51745605,-1.834641218
43294,Ashcroft Complex Care Unit,The Moorings,Hockley,Birmingham,West Midlands,B18 5SD,52.49386215209961,-1.932395816
43299,1 Woodside Crescent,Off Downing Close,Knowle,Solihull,,B93 0QA,52.37980270385742,-1.744747996
43300,,210 Reservoir Road,Erdington,Birmingham,West Midlands,B23 6DJ,52.52388381958008,-1.857314825
43302,,32 Grove Avenue,Moseley,Birmingham,,B13 9RY,52.44133377075195,-1.883678913
43304,,29 Old Warwick Road,Olton,Solihull,West Midlands,B92 7JQ,52.43833923339844,-1.808046699
43306,Hollymoor Way,Northfield,,Birmingham,,B31 5HE,52.40392684936523,-1.993620872
43319,,Lodge Road,Winson Green,Birmingham,West Midlands,B18 5SD,52.49386215209961,-1.932395816
43322,Birmingham Great Park,Bristol Road South,Rednal,Birmingham,West Midlands,B45 9BE,52.40018844604492,-2.008318901
43323,,220 Reservoir Road,Erdington,Birmingham,West Midlands,B23 6DJ,52.52388381958008,-1.857314825
43327,1 Woodside Crescent,Off Downing Close,Knowle,Solihull,,B93 0QA,52.37980270385742,-1.744747996
43332,,100 Showell Green Lane,,Birmingham,West Midlands,B11 4HL,52.44896697998047,-1.86745894
43333,,25 Vincent Drive,,Birmingham,,B15 2FG,52.44923400878906,-1.942314267
43334,,6 Mindelsohn Crescent,Edgbaston,Birmingham,West Midlands,B15 2SY,52.44791793823242,-1.940764308
43335,,"Moseley Hall Hospital site, Alcester Road",Moseley,Birmingham,,B13 8JL,52.44592666625977,-1.892876983
43337,Bury New Road,Prestwich,,Manchester,Greater Manchester,M25 3BL,53.53675079345703,-2.291450739
43348,,Mytton Oak Road,,Shrewsbury,Shropshire,SY3 8XQ,52.70926284790039,-2.793676376
43349,Apley Castle,Grainger Drive,,Telford,Shropshire,TF1 6TF,52.71211242675781,-2.511476278
43381,Farnham Road,,,Guildford,Surrey,GU2 7LX,51.23509216308594,-0.584450543
43566,,Littlebourne Road,,Canterbury,Kent,CT1 1TD,51.27685547,1.1061855554580688
43621,Bow Arrow Lane,Stone,,Dartford,Kent,DA2 6PB,51.44635772705078,0.2416354417800903
43627,Hermitage Lane,,,Maidstone,Kent,ME16 9QQ,51.27366256713867,0.4839882254600525
43654,,Unthank Road,,Norwich,,NR2 2PJ,52.62220001220703,1.2636637687683103
43655,,Bowthorpe Road,,Norwich,,NR2 3TU,52.63391876220703,1.2624820470809937
43656,,Northgate,,Dereham,Norfolk,NR19 2EX,52.69001388549805,0.9457185864448548
43657,North Walsham and District War Memorial Hospital,Yarmouth Road,,North Walsham,Norfolk,NR28 9AP,52.81397629,1.387597918510437
43659,,High Kelling,,Holt,Norfolk,NR25 6QA,52.91447448730469,1.1160567998886108
43660,,Sporle Road,,Swaffham,Norfolk,PE37 7HL,52.65101242,0.6922175288200378
43666,,Dorothy Avenue,,Skegness,Lincolnshire,PE25 2BS,53.14517974853516,0.3322723507881165
43667,,Spalding Road,Pinchbeck,Spalding,Lincolnshire,PE11 3DT,52.80146789550781,-0.150874719
43668,,Ropery Road,,Gainsborough,Lincolnshire,DN21 2TJ,53.41184616088867,-0.78477639
43669,,High Holme Road,,Louth,Lincolnshire,LN11 0EU,53.37100982666016,-0.008567074
43674,,330 Bakewell Road,Darley Dale,Matlock,Derbyshire,DE4 2JD,53.15092849731445,-1.575200796
43675,Walton Hospital,Whitecotes Lane,,Chesterfield,Derbyshire,S40 3HW,53.22159194946289,-1.442568302
43676,Babington Hospital,Derby Road,Belper,Derby,Derbyshire,DE56 1WH,53.01894760131836,-1.485832691
43678,,Sandham Lane,,Ripley,Derbyshire,DE5 3HE,53.04698563,-1.412392139
43679,(Head Office),Baslow Road,,Bakewell,Derbyshire,DE45 1AD,53.21879577636719,-1.672325253
43680,,Market Street,,Chesterfield,Derbyshire,S45 9NZ,53.16793441772461,-1.407211781
43681,,Welbeck Road,Bolsover,Chesterfield,Derbyshire,S44 6DH,53.23152923583984,-1.282501698
43682,,Manchester Road,,Buxton,Derbyshire,SK17 6TE,53.26244735717773,-1.92124033
43683,,Heanor Road,,Ilkeston,Derbyshire,DE7 8LN,52.98809432983398,-1.320802927
43750,,St Michael's Road,,Warwick,Warwickshire,CV34 5QW,52.288841247558594,-1.594397306
43764,Coleshill Road,Marston Green,,Birmingham,West Midlands,B37 7HL,52.47120285,-1.744087577
43800,Praed Street,,,London,,W2 1NY,51.51697158813477,-0.173555061
43801,,Fulham Palace Road,,London,,W6 8RF,51.48704528808594,-0.219920978
43802,Du Cane Road,,,London,,W12 0HS,51.51742172,-0.234706819
43803,Du Cane Road,,,London,,W12 0HS,51.51742172,-0.234706819
43804,153-173 Marylebone Road,,,London,,NW1 5QH,51.52070236206055,-0.163315639
43868,Upper Shoreham Road,,,Shoreham-By-Sea,West Sussex,BN43 6TQ,50.84075927734375,-0.256132513
43869,Spitalfield Lane,,,Chichester,West Sussex,PO19 6SE,50.84355545043945,-0.768012762
43870,Lyndhurst Road,,,Worthing,West Sussex,BN11 2DH,50.81669235229492,-0.363415062
43873,,351 Mill Road,,Cambridge,Cambridgeshire,CB1 3DF,52.19712448120117,0.1508167535066604
43886,,5 Mill Pool Way,,Birmingham (SatNav B5 7SA),,B5 7EG,52.45087051391602,-1.914299846
43888,,Alcester Road,,Birmingham,,B13 8JL,52.44592666625977,-1.892876983
43889,West Heath Hospital,Rednal Road,,Birmingham,West Midlands,B38 8HR,52.39820861816406,-1.953763843
43926,Stone Street,,,Faversham,Kent,ME13 8PS,51.31455231,0.8878364562988282
43939,King Edward Avenue,,,Herne Bay,Kent,CT6 6EB,51.36788177490234,1.1428948640823364
43943,Plover Road,Minster On Sea,,Sheerness,Kent,ME12 3LT,51.41540908813477,0.7930755615234375
43944,Bell Road,,,Sittingbourne,Kent,ME10 4DT,51.33459854125977,0.7365569472312926
43952,Victoria Hospital,London Road,,Deal,Kent,CT14 9UA,51.21939086914063,1.3894963264465332
43956,Whitstable and Tankerton Hospital,Northwood Road,Tankerton,Whitstable,Kent,CT5 2HN,51.36136245727539,1.0500668287277222
43962,Royal Victoria Hospital,Radnor Park Avenue,,Folkestone,Kent,CT19 5BN,51.08599472045898,1.171908617019653
43966,Edenbridge and District War Memorial Hospital,Mill Hill,,Edenbridge,Kent,TN8 5DA,51.19034957885742,0.066651665
43967,Hawkhurst Community Hospital,High Street,Hawkhurst,Cranbrook,Kent,TN18 4PU,51.04884338378906,0.4890314340591431
43969,Sevenoaks Hospital,Hospital Road,,Sevenoaks,Kent,TN13 3PG,51.28826522827149,0.1947443038225174
43970,Tonbridge Cottage Hospital,Vauxhall Lane,,Tonbridge,Kent,TN11 0NE,51.17807006835938,0.2734793722629547
43971,Gravesham Community Hospital,Bath Street,,Gravesend,Kent,DA11 0DG,51.44318389892578,0.3656586408615112
44072,Heights Lane,,,Bradford,West Yorkshire,BD9 6DP,53.80973052978516,-1.805339217
44186,Edward Street,Edward Street,,West Bromwich,,B70 8NL,52.51922607421875,-1.998733521
44188,Heath Lane,,,West Bromwich,West Midlands,B71 2BG,52.53797912597656,-1.991980553
44189,Hallam Street,Hallam Street,,West Bromwich,,B71 4NH,52.52781677246094,-1.986425281
45362,,Roehurst Lane,,Winsford,Cheshire,CW7 2DF,53.19564819335938,-2.531690359
45365,,113 The Ropewalk,,Nottingham,,NG1 6HA,52.95198059082031,-1.156332135
45407,,Lanchester Road,,Durham,,DH1 5RD,54.80043029785156,-1.612225533
45473,Ambrose House,"Meteor Court, Barnett Way",Barnwood,Gloucester,Gloucestershire,GL4 3GG,51.86611175537109,-2.204420328
45485,,Barley Lane,Goodmayes,Ilford,Essex,IG3 8XJ,51.57799149,0.1105019301176071
45488,Arundel & District Hospital,Chichester Road,Arundel,Arundel,Sussex,BN18 0AB,50.85447692871094,-0.565244734
45492,,296 Cottingham Road,,Hull,,HU6 8QG,53.77056503295898,-0.376976818
45548,,6 Tree Road,,Brampton,Cumbria,CA8 1TX,54.93866729736328,-2.727175951
45555,,Cross Lane,,Wigton,,CA7 9DD,54.83044434,-3.171386957
45556,,Park Lane,,Workington,,CA14 2RW,54.64269256591797,-3.55132699
45629,,Benfield Road,,Newcastle-upon-Tyne,Tyne and Wear,NE6 4QD,54.98936844,-1.561600447
45964,Caterham Dene Hospital,Church Road,,Caterham,Surrey,CR3 5RA,51.28363037109375,-0.08521425
46506,,York Road,,Henley-on-Thames,Oxfordshire,RG9 2DR,51.53873825073242,-0.9079175
46583,,Cherry Tree Way,Glen Road,London,,E13 8SP,51.52047348022461,0.038419992
46584,Forensic Centre for Mental Health,12 Kenworthy Road,Homerton,London,,E9 5TD,51.54803085327149,-0.037671819
46586,,Shrewsbury Road,East Ham,London,,E7 8QP,51.54092788696289,0.043299749
46607,,41 Barkham Road,,Wokingham,Berkshire,RG41 2XR,51.41040420532226,-0.843685389
46615,,Kew Foot Road,,Richmond,,TW9 2TE,51.46671295166016,-0.300415009
46651,,Swift Drive,Off Cooper Lane,Bradford,West Yorkshire,BD6 3NL,53.76891708374024,-1.810428143
46715,Colchester General Hospital,Turner Road,,Colchester,Essex,CO4 5JL,51.91016387939453,0.8991968035697937
58425,Trafford General Hospital,Moorside Road,Urmston,Manchester,Greater Manchester,M41 5SL,53.454063415527344,-2.370665789
58580,Bessingby Road,,,Bridlington,Yorkshire(East Riding),YO16 4QP,54.08653259277344,-0.215725005
58612,Cygnet Hospital Godden Green,Godden Green,,Sevenoaks,Kent,TN15 0JR,51.27159881591797,0.2300790101289749
58613,Bierley Lane,,,Bradford,West Yorkshire,BD4 6AD,53.76850509643554,-1.732101202
58614,Beach Road,Kewstoke,,Weston-Super-Mare,Avon,BS22 9UZ,51.36587524414063,-2.964218616
58618,937 Harrogate Road,Apperley Bridge,,Bradford,West Yorkshire,BD10 0RD,53.83239746,-1.710361242
58619,10 Alan Turing Road,Surrey Research Park,,Guildford,Surrey,GU2 7YF,51.24115753173828,-0.613246143
58620,One Didsbury Point,2 The Avenue,Didsbury,Manchester,Greater Manchester,M20 2EY,53.43009948730469,-2.249933243
58622,3 Fusion,1200 Parkway,Whiteley,Fareham,Hampshire,PO15 7AD,50.87654113769531,-1.247176766
58803,11-19 Lisson Grove,Marylebone,,London,,NW1 6SH,51.52185440063477,-0.16512911
58911,Cambian Group,Cobridge Road,,Stoke-On-Trent,Staffordshire,ST1 5JY,53.03343963623047,-2.187804699
59010,Higher Port View,,,Saltash,Cornwall,PL12 4BU,50.40737152,-4.214307308
59039,St. Marys Road,,,Beccles,Suffolk,NR34 9NQ,52.45414733886719,1.5623668432235718
59066,Billericay Community Hospital,Blunts Wall Road,,Billericay,Essex,CM12 9SA,51.62248611450195,0.4006631672382355
59350,Church Road,,,Birkenhead,Merseyside,CH42 0LQ,53.38003540039063,-3.026516199
59503,Marybrook Street,,,Berkeley,Gloucestershire,GL13 9AD,51.69200897216797,-2.458486319
59570,Pebble Lane,,,Brackley,Northamptonshire,NN13 7DA,52.03092193603516,-1.143116951
59588,Woodford Avenue,Lowton,,Warrington,Cheshire,WA3 2RB,53.47247695922852,-2.575762749
59646,University Hospital Aintree,Fazakerley Hospital,Lower Lane,Liverpool,Merseyside,L9 7AL,53.46632766723633,-2.931089401
59654,West Hill,,,London,Greater London,SW15 3SW,51.45220565795898,-0.213720351
59676,,Church Lane,,Haslemere,Surrey,GU27 2BJ,51.09174728393554,-0.708267331
59909,William Macleod Way,,,Southampton,Hampshire,SO16 4XE,50.92466735839844,-1.447782755
59938,Alresford Road,,,Winchester,Hampshire,SO21 1HD,51.06240844726562,-1.283552766
59953,Locksway Road,,,Southsea,Hampshire,PO4 8LD,50.79695510864258,-1.050118327
59962,Conde Way,,,Bordon,Hampshire,GU35 0YZ,51.10616683959961,-0.862033367
59970,61A New Lane,,,Havant,Hampshire,PO9 2JJ,50.85652542114258,-0.975570321
60121,Upper Belgrave Road,,,Stoke-On-Trent,Staffordshire,ST3 4QX,52.97793579101562,-2.122318268
60240,Burrswood,Groombridge,,Tunbridge Wells,Kent,TN3 9PY,51.11860275268554,0.1713893860578537
60338,St. Mary's Hospital,Parkhurst Road,,Newport,Isle of Wight,PO30 5TG,50.71084594726562,-1.301315904
60374,,6 High Street,Cranleigh,Surrey,,GU6 8AE,51.14061356,-0.487048179
60502,184 Coombe Lane West,,,Kingston Upon Thames,Surrey,KT2 7EG,51.41569519042969,-0.254274994
60504,Stamford Clinic,Ravenscourt Park,,London,Greater London,W6 0TQ,51.49491500854492,-0.240863413
60526,26 Heaton Road,,,Bradford,West Yorkshire,BD8 8RA,53.80730056762695,-1.776225328
60676,Scarborough Hospital,Woodlands Drive,,Scarborough,North Yorkshire,YO12 6QL,54.28170776367188,-0.43473798
60868,Dodsley Lane,Easebourne,,Midhurst,West Sussex,GU29 9AW,50.99348068237305,-0.735092878
60874,Hurst Road,,,Horsham,West Sussex,RH12 2DR,51.06988906860352,-0.323812664
60940,30 Maiden Castle Road,,,Dorchester,Dorset,DT1 2ER,50.70612716674805,-2.44437933
61033,Grove Road,,,Romford,Essex,RM6 4XH,51.57696151733398,0.1212931275367736
61037,11 Shelley Road,,,Bournemouth,Dorset,BH1 4JQ,50.729270935058594,-1.841459513
61046,Gubbins Lane,,,Romford,Essex,RM3 0PU,51.59137725830078,0.2331472784280777
61047,Pettits Lane,,,Romford,Essex,RM1 4HL,51.58365631103516,0.1872981190681457
61351,,Burnham On Sea War Memorial Hospital,6 Love Lane,Burnham-On-Sea,Somerset,TA8 1ED,51.23880386352539,-2.993861675
61394,Western Road,,,Crediton,Devon,EX17 3NH,50.79237747192383,-3.674112558
61422,Trescobeas Road,,,Falmouth,Cornwall,TR11 2JA,50.15569305419922,-5.086129189
61470,Lutterworth Road,Bramcote,,Nuneaton,Warwickshire,CV11 6QL,52.5,-1.415539622
61506,East Dulwich Grove,,,London,Greater London,SE22 8PT,51.45906829833984,-0.081234887
61530,Royal Hallamshire Hospital,Glossop Rd,,Sheffield,South Yorkshire,S10 2JF,53.37835693359375,-1.493316293
61619,Park Road West,,,Wolverhampton,West Midlands,WV1 4PW,52.58778762817383,-2.14124155
61718,Bute Street,,,Glossop,Derbyshire,SK13 7QP,53.45338439941406,-1.93734777
61862,Plymouth Road,,,Kingsbridge,Devon,TQ7 1AT,50.28871536254882,-3.778812408
61908,Mary Hewetson Cottage Hospital,Crosthwaite Road,,Keswick,Cumbria,CA12 5PH,54.60670471191406,-3.139808655
61913,Victoria Cottage Hospital,Ewanrigg Road,,Maryport,Cumbria,CA15 8EJ,54.70702362060546,-3.495018959
61929,Church Road,,,Alston,Cumbria,CA9 3QX,54.81021118164063,-2.439819574
61939,Mount Ephraim,,,Tunbridge Wells,Kent,TN4 8AT,51.13549805,0.2597514092922211
61946,Chawton Park Road,,,Alton,Hampshire,GU34 1RJ,51.13982009887695,-0.98941201
61968,Churchill Hospital,Old Road,Headington,Oxford,Oxfordshire,OX3 7JU,51.74965668,-1.214199066
61977,Wantage Road,,,Didcot,Oxfordshire,OX11 0AG,51.60442733764648,-1.260112882
61991,Reading Road,,,Wallingford,Oxfordshire,OX10 9DU,51.59467697143554,-1.12827909
61992,Garston Lane,,,Wantage,Oxfordshire,OX12 7AS,51.58955764770508,-1.418544054
62025,49-51 Hatton Park Road,,,Wellingborough,Northamptonshire,NN8 5AH,52.30670166015625,-0.703097463
62043,Rochford Unit,Pilgrim Hospital,Sibsey Road,Boston,Lincolnshire,PE21 9QS,52.99112701416016,-0.009952853
62085,Witham Court,Fen Lane,North Hykeham,Lincoln,Lincolnshire,LN6 8UZ,53.18568801879882,-0.576419652
62089,Maple Lodge,Toot Lane,,Boston,Lincolnshire,PE21 0AX,52.96977996826172,0.001888801
62140,Wood Street,,,Chelmsford,Essex,CM2 9BG,51.71932220458984,0.4594192504882813
62173,Alexandra Road,,,Epsom,Surrey,KT17 4BL,51.33446121,-0.255309433
62380,,High Road,,Buckhurst Hill,Essex,IG9 5HX,51.62451172,0.032027494
62381,53 Parkside,,,London,Greater London,SW19 5NX,51.43576431274414,-0.223569781
62382,17 - 19 View Road,,,London,,N6 4DJ,51.57716751098633,-0.155873492
62396,42-52 Nottingham Place,,,London,Greater London,W1U 5NY,51.52236557006836,-0.152913287
62397,Chelsea Bridge Road,,,London,Greater London,SW1W 8RH,51.48651885986328,-0.150487691
62398,209 Great Portland Street,,,London,Greater London,W1W 5AH,51.52292251586914,-0.144357011
62401,35 Weymouth Street,,,London,Greater London,W1G 8BJ,51.52035903930664,-0.148180172
62493,Turpington Lane,,,Bromley,Kent,BR2 8JA,51.38766479492188,0.042630605
62824,Somerby Drive,Bicton Heath,,Shrewsbury,Shropshire,SY3 8DS,52.71039581298828,-2.797723055
63030,Birch Hill Hospital,Birch Road,,Rochdale,Lancashire,OL12 9QB,53.64026641845703,-2.121371508
63171,South Road,,,Morpeth,Northumberland,NE61 2BT,55.15835571289063,-1.691863894
63219,Oakwood House,Cedar Road,,Faringdon,Oxfordshire,SN7 8DS,51.65654373168945,-1.588295698
63497,Rickmansworth Road,,,Northwood,Middlesex,HA6 2RN,51.61492538452149,-0.445808202
63570,,4 Granville Court,,Hornsea,,HU18 1NQ,53.91744613647461,-0.164347708
63637,Spa Road,,,Melksham,Wiltshire,SN12 7NZ,51.36713409423828,-2.131529331
63638,The Butts,,,Westbury,Wiltshire,BA13 3EL,51.25523376464844,-2.183468819
63729,Chawton Park Road,,,Alton,Hampshire,GU34 1RJ,51.13982009887695,-0.98941201
63764,Ewell Road,,,Surbiton,Surrey,KT6 6EZ,51.39082717895508,-0.299936891
63911,Homerton Row,,,London,Greater London,E9 6SR,51.55063247680664,-0.046084356
64210,226 Seymour Grove,,,Manchester,Greater Manchester,M16 0DU,53.45288848876953,-2.274085522
64322,Huddersfield Road,,,Holmfirth,West Yorkshire,HD9 3TS,53.57872009277344,-1.784410357
64355,Springs Lane,,,Ilkley,West Yorkshire,LS29 8TH,53.923561096191406,-1.816033244
64419,St Mark's Road,Maidenhead,,Berkshire,Berkshire,SL6 6DU,51.52478027,-0.744875669
64420,,Albert Street,,Slough,Berkshire,SL1 2BJ,51.50535965,-0.593743086
65308,Ilkeston Community Hospital,Heanor Road,,Ilkeston,Derbyshire,DE7 8LN,52.98809432983398,-1.320802927
65344,Warton Street,,,Lytham St. Annes,Lancashire,FY8 5EE,53.73848342895508,-2.947314501
65351,O'neill Drive,,,Peterlee,County Durham,SR8 5UQ,54.75407028198242,-1.333023429
65430,Stanhope,,,Bishop Auckland,County Durham,DL13 2JR,54.74801254272461,-2.018548489
65433,Salters Lane,Sedgefield,,Stockton-On-Tees,Cleveland,TS21 3EE,54.661888122558594,-1.448476672
65579,Bradlegh Road,,,Newton-Le-Willows,Merseyside,WA12 8RB,53.44598388671875,-2.635252714
65677,Hospital Road,Little Plumstead,,Norwich,Norfolk,NR13 5EW,52.64649200439453,1.409598469734192
65794,101 Manthorpe Road,,,Grantham,Lincolnshire,NG31 8DG,52.92108917236328,-0.640699148
66507,1-5 Camden Mews,,,London,Greater London,NW1 9DB,51.54411697387695,-0.134697571
66513,85-87 Fordwych Road,,,London,Greater London,NW2 3TL,51.55041504,-0.204597056
66564,Hulton Lane,,,Bolton,Lancashire,BL3 4JD,53.56484985351562,-2.464836121
66639,1-5 Forest Close,Oughtibridge,,Sheffield,South Yorkshire,S35 0JW,53.421119689941406,-1.520314932
66640,1-5 Forest Close,Oughtibridge,,Sheffield,South Yorkshire,S35 0JW,53.421119689941406,-1.520314932
66781,Fentham Road,"355 Slade Road, Erdington",,Birmingham,West Midlands,B23 6AL,52.51944351196289,-1.855177522
67454,St. Wilfrids Terrace,Longridge,,Preston,Lancashire,PR3 3WQ,53.83215713500977,-2.607671499
67601,Stoney Ridge Road,,,Bingley,West Yorkshire,BD16 1UL,53.82212448120117,-1.816872239
67766,Brighton & Sussex Uni Hosp Trust,Princess Royal Hospital,Lewes Road,Haywards Heath,West Sussex,RH16 4EY,50.99139022827149,-0.093034506
67843,Framfield Road,,,Uckfield,East Sussex,TN22 5AW,50.96595383,0.1056270226836204
68511,Stadium Road,,,London,,SE18 4QH,51.47819137573242,0.050057109
68571,Ransom Road,,,Nottingham,Nottinghamshire,NG3 5GS,52.97148132324218,-1.131278157
68578,Queen Elizabeth House,Queen Elizabeth Drive,,Pershore,Worcestershire,WR10 1PS,52.11405563354492,-2.077760696
68584,Heath Road,,,Ipswich,Suffolk,IP4 5PD,52.05684661865234,1.1979291439056396
68591,419 Main Road,,,Harwich,Essex,CO12 4EX,51.93343353271485,1.2606685161590576
68751,,Weston Road,Stafford,Staffordshire,,ST16 3SA,52.81129455566406,-2.097770452
68956,,London Road,,Buxton,Derbyshire,SK17 9NJ,53.24814606,-1.90827322
68957,Ashgate Road,Ashgate,,Chesterfield,Derbyshire,S42 7JE,53.23967361450195,-1.479461789
69072,Cambridge Road,Fulbourn,,Cambridge,Cambridgeshire,CB21 5EE,52.18558120727539,0.2003648728132248
69166,Hundens Lane,,,Darlington,Durham,DL1 1JE,54.52486801147461,-1.537556887
69172,Stanhope,,,Bishop Auckland,County Durham,DL13 2JR,54.74801254272461,-2.018548489
69295,Doncaster Gate,,,Rotherham,South Yorkshire,S65 1DA,53.43000030517578,-1.352416396
69610,Tuesley Lane,,,Godalming,Surrey,GU7 1UF,51.16789627075195,-0.625385106
69613,12 Clarence Road,,,Windsor,Berkshire,SL4 5AD,51.47990417480469,-0.612757444
69632,Makepeace Road,,,London,Greater London,E11 1UU,51.58370208740234,0.027348172
69837,Dryburn Road,,,Durham,County Durham,DH1 5AJ,54.79074096679688,-1.592396736
70254,2 Exmoor Street,,,London,Greater London,W10 6BD,51.52338790893554,-0.21723561
70368,Sandford Road,,Littlemore,Oxford,Oxfordshire,OX4 4XN,51.71742630004882,-1.229464769
70370,Warneford Lane,Headington,,Oxford,Oxfordshire,OX3 7JX,51.75084305,-1.222305179
70406,Harper Lane,Shenley,,Radlett,Hertfordshire,WD7 9HQ,51.70390701293945,-0.304030776
70467,Piggy Lane,,,Bicester,Oxfordshire,OX26 6HT,51.89619445800781,-1.158063531
70540,Queens Road,,,Richmond,North Yorkshire,DL10 4UJ,54.40489959716797,-1.738326669
70562,Carlton Road,,,Harpenden,Hertfordshire,AL5 4TA,51.81905364990234,-0.352944642
70574,Aylesbury Road,Monks Risborough,,Princes Risborough,Buckinghamshire,HP27 0JS,51.72943878173828,-0.824545026
70616,Castle Hill,Castle Road,,Cottingham,Yorkshire(East Riding),HU16 5JQ,53.7767334,-0.444969475
70635,Bridlington Road,,,Driffield,Yorkshire(East Riding),YO25 5JR,54.01216506958008,-0.423216522
70670,39-42 Coltman Street,,,Hull,Yorkshire(East Riding),HU3 2SG,53.74133682250977,-0.362000048
70809,Rowley Road,Orsett,,Grays,Essex,RM16 3EU,51.50949478149414,0.3662969172000885
70939,Alexandra Road,,,Epsom,Surrey,KT17 4BL,51.33446121,-0.255309433
70948,Cranmer Road,,,Mitcham,Surrey,CR4 4TP,51.39725112915039,-0.16324769
70950,St. Ebbas Hospital,Hook Road,,Epsom,Surrey,KT19 8QJ,51.34932327270508,-0.274490446
71264,16 Stanningley Road,,,Leeds,West Yorkshire,LS12 2HE,53.79930114746094,-1.590011001
71705,Pilgrim Hospital,Sibsey Road,,Boston,Lincolnshire,PE21 9QS,52.99112701416016,-0.009952853
71822,Peel Lane,"Meadowstreet Lane, off Peel Lane",,Manchester,Greater Manchester,M28 0FE,53.52815628051758,-2.425197363
71871,Woodside Avenue,,,London,Greater London,N10 3HU,51.58725738525391,-0.148463771
71957,Woodville Road,,,Altrincham,Cheshire,WA14 2AN,53.38374328613281,-2.360131979
72360,60 Grove End Road,,,London,Greater London,NW8 9NH,51.53347396850586,-0.1754466
72361,Wellhouse Lane,,,Barnet,Hertfordshire,EN5 3DJ,51.65072631835938,-0.214137778
72503,Wansbeck General Hospital,Woodhorn Lane,,Ashington,Northumberland,NE63 9JJ,55.18431091308594,-1.546586394
72543,Gipsy Green Lane,Wath-Upon-Dearne,,Rotherham,South Yorkshire,S63 7TQ,53.49095916748047,-1.342339754
72587,Spring Hill,,,Tavistock,Devon,PL19 8LD,50.54718399047852,-4.153562546
72595,Highbury Road,,,Nottingham,Nottinghamshire,NG6 9DR,52.99304199,-1.191839933
72660,North Street,,,Horncastle,Lincolnshire,LN9 5DX,53.21019744873047,-0.114348158
72763,London Road,,,Daventry,Northamptonshire,NN11 4DY,52.25204086303711,-1.160851955
72966,Berrywood Drive,,,Northampton,Northamptonshire,NN5 6UD,52.24761581420898,-0.960439861
73017,Inpatient Unit,South Wing,4 St. Pancras Way,London,,NW1 0PE,51.53665161132813,-0.131643146
73167,Welch Way,,,Witney,Oxfordshire,OX28 6JJ,51.78741073608398,-1.489841461
73169,Marcham Road,,,Abingdon,Oxfordshire,OX14 1AG,51.67002487182617,-1.301876307
73233,Hospital Road,,,Moreton-In-Marsh,Gloucestershire,GL56 0BS,51.99230194091797,-1.704749465
73248,The Avenue,,,Warminster,Wiltshire,BA12 8QS,51.20670700073242,-2.181701183
73351,Mill Road,,,Wells-Next-The-Sea,Norfolk,NR23 1RF,52.95451354980469,0.8353365659713746
73658,West Green Drive,,,Crawley,West Sussex,RH11 7DH,51.11660385131836,-0.197388515
73660,Pikes Hill,,,Lyndhurst,Hampshire,SO43 7NG,50.87918090820313,-1.583808064
73661,Beaulieu Road,Hythe,,Southampton,Hampshire,SO45 4ZB,50.85858535766602,-1.402899384
73748,Lyndhurst Road,Ashurst,,Southampton,Hampshire,SO40 7AR,50.89214324951172,-1.522285342
73752,Wellworthy Road,,,Lymington,Hampshire,SO41 8QD,50.76910400390625,-1.545462132
73788,Sea Road,,,Lymington,Hampshire,SO41 0PG,50.72243118286133,-1.589503765
74411,Upney Lane,,,Barking,Essex,IG11 9LX,51.53856277,0.098741449
74515,Salt Box Lane,Grenoside,,Sheffield,South Yorkshire,S35 8QS,53.43637847900391,-1.495501876
74534,,Norwood Grange Drive,,Sheffield,,S5 7JT,53.41022872924805,-1.46014297
74650,Victoria Cottage Hospital,North Street,,Emsworth,Hampshire,PO10 7DD,50.84840393066406,-0.937394619
74672,14 Upton Road,,,Bexleyheath,Kent,DA6 8LQ,51.45712280273438,0.1316957622766494
74780,Haymeads Lane,Oxford and Cambridge Wards,,Bishop's Stortford,Hertfordshire,CM23 5JH,51.86548233032226,0.1743354797363281
74783,School Lane,,,Welwyn,Hertfordshire,AL6 9PW,51.82795715332031,-0.222852945
74976,De La Warr Road,Milford On Sea,,Lymington,Hampshire,SO41 0PS,50.72458267211914,-1.600407839
75009,Swan Street,,,Petersfield,Hampshire,GU32 3LB,51.00388717651367,-0.942384362
75023,Horton Road,Rudyard,,Leek,Staffordshire,ST13 8RU,53.12484741210938,-2.084958553
75095,Winchester Hill,,,Romsey,Hampshire,SO51 7ZA,50.99206543,-1.48197794
75250,Victoria Road,,,Barnard Castle,,DL12 8HT,54.54571151733398,-1.916138291
75270,Broomfield Hospital,,,Chelmsford,Essex,CM1 7ET,51.77465438842773,0.4660079181194306
75279,Burton Hill,,,Malmesbury,Wiltshire,SN16 0EQ,51.57769012451172,-2.09463191
75333,Ashbourne Road,,,Leek,Staffordshire,ST13 5BQ,53.10279083251953,-2.009697914
75334,Royal Walk,Cheadle,,Stoke-On-Trent,Staffordshire,ST10 1NS,52.98420715332031,-1.990187883
75335,Talke Road,,,Newcastle under Lyme,Staffordshire,ST5 7NJ,53.03947830200195,-2.238672972
75398,1629 London Road,,,Leigh-On-Sea,Essex,SS9 2SQ,51.54800415039063,0.6373537182807922
75781,Ellingham Road,,,Attleborough,Norfolk,NR17 1AE,52.52545928955078,0.9934459924697876
75792,93 Riverdale Road,Ranmoor,,Sheffield,South Yorkshire,S10 3FE,53.36991500854492,-1.518530488
75803,Albany Terrace,,,St. Ives,Cornwall,TR26 2BS,50.20772171020508,-5.479106903
75804,Meneage Road,,,Helston,Cornwall,TR13 8DR,50.09196472167969,-5.264863968
75806,Belmont,,,St. Marys,,TR21 0LE,49.913063049316406,-6.309277058
75906,Nevill Road,,,Lewes,East Sussex,BN7 1PE,50.87515640258789,-0.005517753
75984,The Manor Site,Manor Court Avenue,,Nuneaton,Warwickshire,CV11 5HX,52.52698898,-1.477693915
76230,St. Ann's Road,,,London,Greater London,N15 3TH,51.58062744140625,-0.092082247
76380,"Unit 6, Technology Park",Colindeep Lane,,London,,NW9 6BX,51.59215164,-0.254289329
76398,Claybrook Road,,,London,Greater London,W6 8NF,51.48640441894531,-0.217425317
76480,St. Leonards Road,,,Windsor,Berkshire,SL4 3DP,51.47354507446289,-0.614692628
76535,St. Marys Hospital,Floyd Drive,,Warrington,Cheshire,WA2 8DB,53.40608596801758,-2.592434645
76998,Worcester Road,Burford,,Tenbury Wells,Worcestershire,WR15 8AP,52.31528091430664,-2.589535236
77051,High Lane,Burslem,,Stoke-On-Trent,Staffordshire,ST6 7AG,53.05694580078125,-2.191398382
77187,Woodlands Drive,,,Scarborough,North Yorkshire,YO12 6QN,54.27745056152344,-0.443116665
77807,Buryfields,Odiham,,Hook,Hampshire,RG29 1NE,51.25178146362305,-0.939789176
77810,Church Road,,,Fleet,Hampshire,GU51 4LZ,51.28755569458008,-0.848665714
78034,Newton Road,,,Sudbury,Suffolk,CO10 2RQ,52.03901672363281,0.7363262176513672
78043,Castleton Way,,,Eye,Suffolk,IP23 7BH,52.32275772094727,1.140040636062622
78045,Foxhall Road,,,Ipswich,Suffolk,IP3 8LS,52.05061340332031,1.1926113367080688
78102,Rice Lane,,,Liverpool,Merseyside,L9 1NL,53.45125198364258,-2.961734772
78133,279 Beacon Road,Wibsey,,Bradford,West Yorkshire,BD6 3DQ,53.77084350585938,-1.801452756
78482,Station Road,Ditchingham,,Bungay,Suffolk,NR35 2QL,52.46672439575195,1.4467326402664185
78486,Spencer Private Hospitals,Queen Elizabeth The Queen Mother Hospital,Ramsgate Road,Margate,Kent,CT9 4BG,51.37719727,1.3904786109924316
78514,Queen's Hospital,Belvedere Road,,Burton-On-Trent,Staffordshire,DE13 0RB,52.81777954101562,-1.65636909
78822,Cottingham Road,,,Corby,Northamptonshire,NN17 2UN,52.49129104614258,-0.710753739
78925,1-5 Heather Close,Hither Green,,London,Greater London,SE13 6UG,51.44773483276367,-0.0052188
245496,Manor Lane,,,Longfield,Kent,DA3 8ND,51.37248611450195,0.2855559289455413
352651,Porthpean Road,,,St. Austell,Cornwall,PL26 6AA,50.32714844,-4.77303791
352674,Stanley Street,,,Ulverston,Cumbria,LA12 7BT,54.19888687133789,-3.097817898
352756,,Stow Road,,Moreton-In-Marsh,Gloucestershire,GL56 0DS,51.98355865478516,-1.70594275
462443,,80-82 Blackheath Hill,,London,,SE10 8AD,51.47226715,-0.011118047
462444,,60 Rastrick Common,,Brighouse,West Yorkshire,HD6 3EL,53.69253158569336,-1.787449479
462451,,44 Lewisham Park,Lewisham,London,,SE13 6QZ,51.45201873779297,-0.012847439
462452,,74 Kenton Road,,Kenton,Middlesex,HA3 8AE,51.58077239990234,-0.319847822
462554,,23 Tunnan Leys,Beckton,London,,E6 6ZB,51.51347351074218,0.064914621
462557,,City Gate,London Road,Derby,Derbyshire,DE24 8WZ,52.90743255615234,-1.455215216
462558,,22 Corfton Road,,Ealing,,W5 2HT,51.52116775512695,-0.297120094
462559,,23 Ripon Road,,Harrogate,North Yorkshire,HG1 2JL,53.999778747558594,-1.547755837
462560,,London Road,,Harrow on the Hill,Middlesex,HA1 3JL,51.56709289550781,-0.337969631
462561,,Graveley Road,,Stevenage,,SG1 4YS,51.92834473,-0.214017674
462562,,Blankney Grange,"Huddersfield Road, Wyke",Bradford,West Yorkshire,BD12 8LR,53.72850799560546,-1.774566889
462800,Cedar House,Dover Road,Barham,Canterbury,Kent,CT4 6PW,51.20186996459961,1.176016330718994
570366,Hartington Unit,Chesterfield Royal Hospital,Calow,Chesterfield,Derbyshire,S44 5BL,53.23583602905274,-1.3960042
750747,All Saints Road,,,Sidmouth,Devon,EX10 8EW,50.68161392211914,-3.239641666
864654,,Steeton,Keighley,Bradford,,BD20 6TD,53.89801788330078,-1.962679625
864773,,Woodlands Drive,,Scarborough,,YO12 6QL,54.28170776367188,-0.43473798
978682,Wellington South,Wellington Place,,London,,NW8 9LE,51.53155136108398,-0.171457693
978693,Broadoak Unit,Broadgreen Hospital Site,Thomas Drive,Liverpool,,L14 3PJ,53.41078949,-2.895334244
978694,Windsor House,40 Upper Parliament Street,,Liverpool,,L8 7LF,53.39556884765625,-2.969381332
978695,Mossley Hill Hospital,Park Avenue,,Liverpool,,L18 8BU,53.380409240722656,-2.925530195
978699,Rathbone Hospital,Mill Lane,,Liverpool,,L13 4AW,53.40756988525391,-2.915574789
978723,Teddington Memorial Hospital,Hampton Road,,Teddington,Middlesex,TW11 0JL,51.42583847045898,-0.34098497
979468,Swinemoor Lane,,,Beverley,North Humberside,HU17 0FA,53.85277557373047,-0.413159162
979644,Community Unit,Lingwell Grove,Middleton,Leeds,West Yorkshire,LS10 4BS,53.74658966064453,-1.53905952
1094717,27 Holme Road,Market Weighton,East Riding of Yorkshire,York,North Yorkshire,YO43 3EQ,53.86422348022461,-0.670747459
1094732,,York Road,Earlsheaton,Dewsbury,,WF12 7LB,53.69366455078125,-1.61423862
1094756,,Farnborough Common,,Orpington,Kent,BR6 8ND,51.36624145507813,0.059160762
1094758,Sevenoaks Road,,,Orpington,Kent,BR6 9JU,51.36250305175781,0.095164143
1094869,Ashley,,Market Drayton,Stoke-on-Trent,Staffordshire,TF9 4LX,52.92867660522461,-2.356504679
1095035,,"Entrance D, 71 Fentham Road",Erdington,Birmingham,West Midlands,B23 6AL,52.51944351196289,-1.855177522
1095154,,Aldermaston Road,,Basingstoke,Hampshire,RG24 9RH,51.28273773,-1.112343669
1095168,,Bartons Road,,Fordingbridge,,SP6 1JD,50.92808151245117,-1.793190479
1095826,Mental Health Unit,Exmoor Street,,"Kensington and Chelsea, London",,W10 6DZ,51.52236175537109,-0.217203587
1095914,,Oakmere Ward,,Potters Bar,Hertfordshire,EN6 2RY,51.68718338012695,-0.177504808
1095944,,Tetbury Road,,Cirencester,,GL7 1UY,51.71238708496094,-1.975448966
1095945,,Lister Road,,Dursley,,GL11 4BA,51.68804931640625,-2.353351831
1095946,,Barton Road,Tewkesbury,Gloucestershire,,GL20 5QN,51.992149353027344,-2.152463675
1095947,,Speech House Road,,Cinderford,,GL14 3HX,51.81121063232422,-2.519848824
1095948,,Grove Road,,Lydney,Gloucestershire,GL15 5JE,51.727317810058594,-2.536882162
1095949,,The Croft,,Fairford,,GL7 4BB,51.70811462402344,-1.778166652
1095950,,Trinity Road,,Stroud,Gloucestershire,GL5 2HY,51.74302673339844,-2.208121777
1096059,,Saltwell Road,,Gateshead,,NE8 4YL,54.94495773,-1.614957929
1169049,,London Road,Benham Hill,Thatcham,Berkshire,RG18 3AS,51.40637588500977,-1.291764498
1169069,,"401 Sandygate Road, Sheffield",,Sheffield,South Yorkshire,S10 5UB,53.37545776367188,-1.536024451
1279531,Central Drive,Shirebrook,,Mansfield,Nottinghamshire,NG20 8BA,53.20175934,-1.218161106
1279606,London Road,,,Ascot,Berkshire,SL5 8AA,51.41016769,-0.687337935
1279646,Shepton Mallet Treatment Centre,Old Wells Road,,Shepton Mallet,Somerset,BA4 4LP,51.18974304199218,-2.562704802
1279647,The Brooms,Emersons Green,,Bristol,Avon,BS16 7FH,51.50328445,-2.484394789
1279653,20 Brest Road,Derriford,,Plymouth,Devon,PL6 5XP,50.412391662597656,-4.11767292
1349252,Bridgwater Community Hospital,Bower Lane,,Bridgwater,Somerset,TA6 4GU,51.13797378540039,-2.971696138
1349731,Sheppey Community Hospital,Plover Road,Minster-on-Sea,Sheerness,Kent,ME12 3LT,51.41540908813477,0.7930755615234375
1349762,Newnham Court Way,Weavering,,Maidstone,Kent,ME14 5FT,51.28607177734375,0.5569166541099548
1349810,,165 Yardley Green Road,Bordesley Green,Birmingham,,B9 5PU,52.47571182250977,-1.839067101
1350031,Eastland Road,Thornbury,,Bristol,Avon,BS35 1DN,51.61167144775391,-2.518879414
1521809,,Swandean,Arundel Road,Worthing,West Sussex,BN13 3EF,50.84244537353516,-0.411901087
1521810,Chalkhill,Based on the Princess Royal Hospital site,Lewes Road,Haywards Heath,West Sussex,RH16 4NQ,50.99113845825195,-0.093586311
1634862,5 Hugo Street,,,Leek,Staffordshire,ST13 5PE,53.10265350341797,-2.028098822
1708424,Valley View Road,,,Seaton,Devon,EX12 2UU,50.71180725097656,-3.071492434
1708524,Bierton Road,,,Aylesbury,Buckinghamshire,HP20 1EG,51.82040786743164,-0.802549005
1819383,1-4 River Front,Enfield Town,,Enfield,Middlesex,EN1 3SY,51.65277481079102,-0.078457452
1819387,Erith Hospital,Urgent Care 01322356116,Park Crescent,Erith,Kent,DA8 3EE,51.47711181640625,0.166657731
1819859,Mount Road,,,Hinckley,Leicestershire,LE10 1AG,52.53975296020508,-1.368243217
1819863,Cold Overton Road,,,Oakham,Rutland,LE15 6NT,52.67080307006836,-0.737524748
1819864,33 Leicester Road,,,Market Harborough,Leicestershire,LE16 7BN,52.48721313476562,-0.931075811
2026442,North Street,,,Emsworth,Hampshire,PO10 7DD,50.84840393066406,-0.937394619
2027168,127 The Ridgeway,,,Enfield,Middlesex,EN2 8JL,51.66652679,-0.104020678
2027170,King Arthur Court,Cheshunt,,Waltham Cross,Hertfordshire,EN8 8XN,51.69922637939453,-0.03320666
2027176,,Willerby Hill,,Hull,Yorkshire(East Riding),HU10 6ED,53.77197266,-0.444462657
2131250,Northumbria Specialist Emergency Care Hospital,Northumbria Way,Northumberland,Cramlington,Northumberland,NE23 6NZ,55.07406997680664,-1.569669127
2309255,Penn Hospital,Penn Road,Penn,Wolverhampton,,WV4 5HN,52.55867385864258,-2.159173012
2309346,Park Road,,,Fowey,Cornwall,PL23 1EE,50.33850479125977,-4.639208794
2309377,,32 Firshill Rise,,Sheffield,,S4 7BU,53.40324401855469,-1.467451096
2309378,,75 Osborne Road,,,,S11 9BF,53.36141204833984,-1.49758935
2309420,Brunswick Road,,,Cannock,Staffordshire,WS11 5XY,52.69324493408203,-2.030599594
2489913,,1 Crozier Terrace,,London,,E9 6AT,51.548377990722656,-0.04018094
2596948,,Fairfield General Hospital,,Rochdale,,BL9 7TD,53.60042572021485,-2.255607843
2704015,Foscote Hospital,2 Foscote Rise,,Banbury,Oxfordshire,OX16 9XP,52.05334091186523,-1.330979109
2704214,134 Palatine Road,Didsbury,,Manchester,Greater Manchester,M20 3ZA,53.42431641,-2.238432407
2704221,Hospital Lane,,,Bridport,Dorset,DT6 5DR,50.74161148071289,-2.769914389
2704334,71 St. Pauls Road,,,London,Greater London,N17 0ND,51.60136413574218,-0.06148101
2704335,69 Bloomfield Road,Woolwich,Greenwich,London,Greater London,SE18 7JN,51.48412322998047,0.070732526
2917635,Drayton House,2 Lulworth Road,,Southport,,PR8 2AT,53.642127990722656,-3.016127586
2917651,Watford Road,,,Harrow,Middlesex,HA1 3UJ,51.57540893554688,-0.322022736
2917652,Acton Lane,Park Royal,,London,,NW10 7NS,51.53093719482422,-0.269146293
2917653,Watford Road,,,Harrow,Middlesex,HA1 3UJ,51.57540893554688,-0.322022736
2917654,Uxbridge Road,,,Southall,Middlesex,UB1 3HW,51.507606506347656,-0.345481128
2917659,,Cliftonville,,Northampton,Northamptonshire,NN1 5BD,52.23605346679688,-0.883829474
2917660,,Clifford Bridge Road,,Coventry,,CV2 2TE,52.42243194580078,-1.445534468
2917773,107 Heslington Road,,,York,North Yorkshire,YO10 5BN,53.95082473754882,-1.063120484
3028092,Wexham Park,,,Slough,Berkshire,SL2 4HL,51.53200912475586,-0.573977947
3028142,,Clatterbridge Road,Bebington,Wirral,,CH63 4JY,53.33288955688477,-3.024122
3028181,Upper Borough Walls,,,Bath,Avon,BA1 1RL,51.38225936889648,-2.3614223
3028281,801 London Road,Cheam,,Sutton,Surrey,SM3 9DW,51.379920959472656,-0.220803648
3137672,,Doddington Hospital,Benwick Road,Doddington,Cambridgeshire,PE15 0UG,52.49989318847656,0.055862084
3137676,,North Cambs Hospital,Churchill Road,Wisbech,Cambridgeshire,PE13 3AB,52.66493606567383,0.1639279127120971
3137680,,Princess of Wales Hospital,Lynn Road,Ely,Cambridgeshire,CB6 1DN,52.41312789916992,0.2754795253276825
3138301,,The Plain,Epping,Essex,,CM16 6TN,51.70429611206055,0.1239447593688964
3358845,Ground Floor South Wing,Madford Retail Park,Foregate Street,Stafford,Staffordshire,ST16 2PA,52.81060791015625,-2.120675087
3469744,Marton Road,,,Middlesbrough,Cleveland,TS4 3AF,54.55572128295898,-1.217651725
3580194,Great Oaks,Ashby High Street,,Scunthorpe,Lincolnshire,DN16 2JX,53.56698608398438,-0.638559699
3580196,Opal Centre,Tickhill Road Site,Weston Road,"Balby, Doncaster",South Yorkshire,DN4 8QN,53.49481582641602,-1.145960689
3664766,Wotton Lawn Hospital,Horton Road,,Gloucester,Gloucestershire,GL1 3WL,51.866966247558594,-2.227879047
3664767,,"Berkeley Close, Stroud",,,,GL5 4SA,51.74640274047852,-2.247665167
3664772,,"Charlton Lane, Cheltenham",,,,GL53 9DZ,51.88105392456055,-2.073666811
3664773,,"Swindon Road, Cheltenham",,,,GL51 9EZ,51.90705871582031,-2.082939863
3664780,,"Barton Street, Hereford",,,,HR4 0AY,52.05361175537109,-2.723156214
3664840,Heathcote Lane,Heathcote,,Warwick,Warwickshire,CV34 6SR,52.26855850219727,-1.540391564
3774885,Russells Hall Hospital,Pensnett Road,,Dudley,West Midlands,DY1 2HQ,52.50294876098633,-2.118503094
3774995,,Lothingland,,Oulton,Suffolk,NR32 3JQ,52.49748992919922,1.7186286449432373
3775034,,3 and 4 Walker Close,,Ipswich,Suffolk,IP3 8LY,52.05271911621094,1.1968756914138794
3775035,Stepping Out,1B St Catherines Way,,Gorleston on Sea,Norfolk,NR31 7QB,52.57298278808594,1.7169004678726196
3775074,30 Passey Place,,,London,,SE9 5DQ,51.44994735717773,0.053728048
3775218,East Budleigh Road,,,Budleigh Salterton,Devon,EX9 6HF,50.63159561157226,-3.320505857
3775539,Orchard Portman,,,Taunton,Somerset,TA3 7BQ,50.98910903930664,-3.077581644
3995215,Sterling Place,,South Ealing,London,,W5 4RN,51.49508666992188,-0.298870057
4105540,Clifton Road,,,Ashbourne,Derbyshire,DE6 1DR,53.01286315917969,-1.737574458
4209586,,Exeter Road,,Dawlish,Devon,EX7 0NR,50.59967422485352,-3.468164444
4209620,58 Coventry Road,,,Market Harborough,Leicestershire,LE16 9DD,52.47731399536133,-0.927163541
4210128,St. Pauls Square,,,Liverpool,Merseyside,L3 9SJ,53.41016387939453,-2.993783712
4210137,1 Belvedere Road,,,Newton-Le-Willows,Merseyside,WA12 0JJ,53.45717621,-2.638371706
4317678,South Mall,Manor Walks Shopping Centre,,Cramlington,Northumberland,NE23 6UT,55.08548355102539,-1.590033174
4621799,Porthpean Road,,,St. Austell,Cornwall,PL26 6AB,50.328575134277344,-4.772080898
4621800,Foundry Hill,,,Hayle,Cornwall,TR27 4HW,50.18145751953125,-5.423200607
4621851,34 Sandy Lane,Romiley,,Stockport,Cheshire,SK6 4NH,53.41864776611328,-2.082670927
4621852,268 Park Lane,,,Macclesfield,Cheshire,SK11 8AE,53.25304794311523,-2.134898901
4621854,The Ridgeway,Mill Hill,,London,Greater London,NW7 1RH,51.61768723,-0.222455218
4622618,Twickenham Road,,,Isleworth,Middlesex,TW7 6AF,51.47364807128906,-0.324419945
4732682,,Windmill Rise,,Blackpool,,FY4 4FE,53.79953384399414,-2.987885952
4842842,527 - 529 City Road,Edgbaston,,Birmingham,West Midlands,B17 8LL,52.47527694702149,-1.960809231
4952846,52 Moxon Street,,,Barnet,Hertfordshire,EN5 5TS,51.65415191650391,-0.198736995
4953026,Southview Road,,,Crowborough,East Sussex,TN6 1HB,51.05144500732422,0.1574735641479492
5065244,Cobham Day Surgery,168 Portsmouth Road,,Cobham,Surrey,KT11 1HS,51.33544540405274,-0.408205032
5176076,Springview,Clatterbridge Health Park,,Wirral,Cheshire,CH63 4JY,53.33288955688477,-3.024122
5176991,St Leonard's Hospital,Nuttall Street,,London,,N1 5LZ,51.53392028808594,-0.077771641
5177144,,Canada Avenue,,Redhill,,RH1 5RH,51.21919250488281,-0.161995023
5372875,Kennington Road,Willesborough,,Ashford,Kent,TN24 0YS,51.14266204833984,0.9117500185966492
5373060,Springhill,,,Whitby,North Yorkshire,YO21 1DP,54.48391342163086,-0.617263436
5373148,Buller Street,,,Bury,Lancashire,BL8 2BS,53.58713912963867,-2.316722631
5373149,83 East Bank Road,,,Sheffield,South Yorkshire,S2 3PX,53.36828613,-1.459696174
5373150,Redding Way,Knaphill,,Woking,Surrey,GU21 2QS,51.31477737426758,-0.61519134
5480244,The Driveway Building,Bootham Park Hospital,Bootham,York,,YO30 7BY,53.96807479858398,-1.085584641
5480313,Clemo Road,,,Liskeard,Cornwall,PL14 3XD,50.46159362792969,-4.450968266
5692500,63-77 London Road,,,Maidstone,Kent,ME16 0DU,51.27745056152344,0.5075084567070007
5904543,Unit 10 Silkwood Park,Fryers Way,,Ossett,West Yorkshire,WF5 9TJ,53.68282699584961,-1.548219204
5904550,14 Fitzroy Square,,,London,Greater London,W1T 5HP,51.52371215820313,-0.139683187
6010838,27 Welbeck Street,,,London,Greater London,W1G 8EN,51.51823806762695,-0.149448082
6117792,Cook's Hill,Gimingham,Mundesley,Norwich,Norfolk,NR11 8ET,52.87729644775391,1.4134953022003174
6117824,Benjamin Court,Roughton Road,,Cromer,Norfolk,NR27 0EU,52.92454528808594,1.3008265495300293
6224161,Fenton House,85-89 New London Road,,Chelmsford,Essex,CM2 0PP,51.73030853271485,0.471138209
6224175,Ford Street,Moretonhampstead,,Newton Abbot,Devon,TQ13 8LN,50.66149139404297,-3.765950918
6518169,Buxton Lane,Marple,,Stockport,Cheshire,SK6 7QL,53.38997268676758,-2.072225094
6518170,High Grange Avenue,,,Billingham,Cleveland,TS23 3TY,54.61868286132813,-1.291753888
6518171,Southwell Road West,,,Mansfield,Nottinghamshire,NG18 4XX,53.1361084,-1.168948889
6518172,West Avenue,,,Billingham,Cleveland,TS23 1DA,54.59230422973633,-1.292985201
6518173,Birkdale Way,Newbridge Road,,Hull,Yorkshire(East Riding),HU9 2BH,53.74993896484375,-0.308325261
6518174,Paternoster Hill,,,Waltham Abbey,Essex,EN9 3JY,51.69111251831055,0.019816931
6518175,Noddle Hill Way,Bransholme,,Hull,Yorkshire(East Riding),HU7 4FG,53.78861999511719,-0.307072937
6701616,Peasmarsh Road,Rye Foreign,,Rye,East Sussex,TN31 7UD,50.96189880371094,0.7311829328536987
6701659,East Hill,,,Dartford,Kent,DA1 1SA,51.44222641,0.2268123775720596
6701944,,Drayton High Road,,,,NR6 5BE,52.65953063964844,1.250886321
6701976,,St Clements Hospital,,,,IP3 8LS,52.05061340332031,1.1926113367080688
6795504,Spire Nottingham Hospital,Tollerton Lane,Tollerton,Nottingham,Nottinghamshire,NG12 4GA,52.91842651367188,-1.086676002
7071384,,Countess of Chester Healthpark,Liverpool Road,Chester,Cheshire,CH2 1BQ,53.21154785,-2.898810625
7071523,Mindelsohn Way,Edgbaston,,Birmingham,West Midlands,B15 2TG,52.45323563,-1.942890882
7353080,Hinchingbrooke Hospital,Hinchingbrooke Park,,Huntingdon,Cambridgeshire,PE29 6NT,52.33335113525391,-0.202664033
7353197,,Hospital Lane,,,,EX1 3RB,50.73098373413086,-3.484140635
7560330,"Level 9, Interchange",81-85 Wellesley Road,,Croydon,Surrey,CR0 2RD,51.38014221191406,-0.10036391
7560656,West Dyke Road,,,Redcar,Cleveland,TS10 4NW,54.60058212280274,-1.06969142
7560659,Woodland Avenue,,,Goole,North Humberside,DN14 6RX,53.71546555,-0.874916792
7560822,Union Lane,,,Rochford,Essex,SS4 1RB,51.58395385742188,0.7027963995933533
7757945,,Long Lane,,Grays,Essex,RM16 2PX,51.496376037597656,0.3362110257148743
7828754,Tapton Crescent Road,,,Sheffield,South Yorkshire,S10 5DD,53.37828826904297,-1.510799766
7828769,Portland Street,Kirkby-In-Ashfield,,Nottingham,Nottinghamshire,NG17 7AB,53.10095977783203,-1.246649504
8027649,Kenton Grange,Kenton Road,,Harrow,Middlesex,HA3 0YG,51.58670425415039,-0.30027172
8028042,Buckingham Road,,,Aylesbury,Buckinghamshire,HP19 9AB,51.82072448730469,-0.815903425
8028120,Church Lane,Acklam,,Middlesbrough,Cleveland,TS5 7DX,54.54643249511719,-1.250988483
8127678,The Fulbrook Centre,"Churchill Hospital, Headley Way",Headington,Oxford,Oxfordshire,OX3 7JU,51.74965668,-1.214199066
8127909,Hale Road,,,Farnham,Surrey,GU9 9QL,51.22049331665039,-0.784627557
8228408,New Court,Regents Place,Windsor Street,Salford,Greater Manchester,M5 4HB,53.47900391,-2.278548241
8228422,Oxford Road,,,Manchester,Greater Manchester,M13 9WL,53.46167373657226,-2.224890709
8228423,Oxford Road,,,Manchester,Greater Manchester,M13 9WL,53.46046829223633,-2.224475861
8228424,Oxford Road,,,Manchester,Greater Manchester,M13 9WL,53.46088790893554,-2.223982334
8228425,Oxford Road,,,Manchester,Greater Manchester,M13 9WL,53.4611702,-2.223896503
8228427,Southmoor Road,Wythenshawe,,Manchester,Greater Manchester,M23 9LT,53.38885116577149,-2.291815042
8228428,Nell Lane,West Didsbury,,Manchester,Greater Manchester,M20 2LR,53.42520141601562,-2.245216846
8228429,Moorside Road,Urmston,,Manchester,Greater Manchester,M41 5SL,53.45406723022461,-2.370682955
8228430,Railway Street,,,Altrincham,Cheshire,WA14 2RE,53.38510894775391,-2.351232052
8228458,Higher Cambridge Street,,,Manchester,Greater Manchester,M15 6FH,53.46536636352539,-2.236637831
8329532,52 Alderley Road,,,Wilmslow,Cheshire,SK9 1NY,53.32465744018554,-2.234813213
8329604,Jacketts Field,,,Abbots Langley,Hertfordshire,WD5 0PA,51.70483016967773,-0.408574492
8329608,Gayton Road,Gaywood,,King's Lynn,Norfolk,PE30 4HJ,52.75782012939453,0.4471761584281921
8329710,One Hatfield Hospital,3 Hatfield Avenue,,Hatfield,Hertfordshire,AL10 9UA,51.77072143554688,-0.236349955
8431103,43 Churchgate,,,Bolton,Lancashire,BL1 1HU,53.57993316650391,-2.425807714
8532393,Whitechapel,,,London,Greater London,E1 1BB,51.51901626586914,-0.058118623
8634153,John Radcliffe Hospital,Headley Way,Headington,Oxford,Oxfordshire,OX3 9DU,51.76387405395508,-1.219792008
8836829,42-46 Weymouth Street,,,London,Greater London,W1G 6NP,51.52021789550781,-0.150679529
8836833,West Midlands Rehabilitation Centre,Oak Tree Lane,,Birmingham,West Midlands,B29 6JA,52.43637466430664,-1.938838005
8837168,The Surgery @ Wheatbridge,30 Wheatbridge Road,,Chesterfield,Derbyshire,S40 2AB,53.23394393920898,-1.439604998
8837239,Warminster Road,South Newton,,Salisbury,Wiltshire,SP2 0QD,51.10705184936523,-1.875867605
9040110,67-71 Lansdowne Road,,,Bournemouth,Dorset,BH1 1RW,50.72975540161133,-1.869780898
9242464,Trent Valley Road,,,Lichfield,Staffordshire,WS13 6EF,52.68593978881836,-1.815455794
9445752,Bordesley Green East,Bordesley Green,,Birmingham,West Midlands,B9 5SS,52.48022079467773,-1.829951048
9445753,Rectory Road,,,Sutton Coldfield,West Midlands,B75 7RR,52.56736755371094,-1.812028766
9445754,Lode Lane,,,Solihull,West Midlands,B91 2JL,52.4171257,-1.774350882
9548866,Westpark,Chelston,,Wellington,Somerset,TA21 9AD,50.98056411743164,-3.208227634
9653420,Constable Road,,,Felixstowe,Suffolk,IP11 7HJ,51.96376419067383,1.3559541702270508
9653501,24 Brompton Road,,,Northallerton,North Yorkshire,DL6 1EA,54.34474945,-1.432177424
9653502,6 Chapel Street,,,Thirsk,North Yorkshire,YO7 1LU,54.23168182373047,-1.342375517
9759044,Doctors Lane,Eccleston,,Chorley,Lancashire,PR7 5RA,53.647254943847656,-2.728149891
9759163,2 Clifton Lane,,,Rotherham,South Yorkshire,S65 2AJ,53.42804336547852,-1.346215487
9759367,Trent Valley Road,,,Lichfield,Staffordshire,WS13 6EF,52.68593978881836,-1.815455794
9759368,Princes Road,,,Stoke-On-Trent,Staffordshire,ST4 7LN,53.00675582885742,-2.199476719
9759462,Talke Road,Chesterton,,Newcastle,Staffordshire,ST5 7NL,53.04159927368164,-2.242085218
9970086,,,,,,,,
9970137,All Saints Hospital,159 Grange Avenue,,Oldham,Lancashire,OL8 4EF,53.52851867675781,-2.127417088
10075366,Ampthill Road,Steppingley,,Bedford,Bedfordshire,MK45 1AB,52.01228713989258,-0.511812329
10075471,Gayton Road,Gaywood,,King's Lynn,Norfolk,PE30 4HJ,52.75782012939453,0.4471761584281921
10075654,93 Kneeton Road,East Bridgford,,Nottingham,Nottinghamshire,NG13 8PJ,52.98645782470703,-0.964079797
10075656,Wasthill Lane,Kings Norton,,Birmingham,West Midlands,B38 9ET,52.38463973999024,-1.944918394
10075671,118 Woodland Road,,,Darlington,,DL3 9LN,54.5306282,-1.568474174
10075674,Hurworth Road,Neasham,,Darlington,County Durham,DL2 1PE,54.48135375976562,-1.507997751
10398514,2 Foscote Rise,,,Banbury,,OX16 9XP,52.05334091186523,-1.330979109
10398515,Ground Floor,Ginsburg Yard,,London,,NW3 1EW,51.55677032470703,-0.177716881
10512701,Gilmorton Road,,,Lutterworth,,LE17 4DZ,52.45785522460938,-1.197785735
10565314,Monkton Lane,Monkton Village,,Jarrow,,NE32 5NN,54.96662521362305,-1.501260161
10565381,Wrexham Technology Park,,,Wrexham,,LL13 7YP,53.04897689819336,-3.014095068
10617463,Steelhouse Lane,,,Birmingham,,B4 6NW,52.48423385620117,-1.893373251
10617466,C/O John Radcliffe Hospital,Headley Way,Headington,Oxford,,OX3 9DU,51.76387405395508,-1.219792008
10617482,Haxby Road,,,York,,YO31 8TA,53.97470092773438,-1.075559855
10617567,The Parade,,,Jersey,,JE1 3UH,,
10617785,,"Holcombe Hill, The Ridgway Mill Hill",,,,NW7 4HX,51.62344360351562,-0.236807093
10749492,376 London Road,,,Leicester,,LE2 2PN,52.61320495605469,-1.10255444
10775735,Dental Hospital,Pembroke Place,,Liverpool,,L3 5PS,53.40892791748047,-2.967007399
10775747,Thomas Drive,,,Liverpool,,L14 3LB,53.4111557,-2.89797473
10775992,,47-49 Huntley St,,,,WC1E 6DG,51.52168273925781,-0.133553207
10776494,Pebble Mill Road,,,Birmingham,,B5 7SA,52.45180511,-1.912256718
10802752,,Arctic House,141 Glaisdale Drive,Bilborough,Nottinghamshire,NG8 4GY,52.95772552490234,-1.23340559
10802753,,18 Market Place,Bingham,Nottingham,,NG13 8AP,52.952674865722656,-0.952130675
10802821,1B Curzon Road,,,Southport,Merseyside,PR8 6PL,53.64030838012695,-2.983456135
10802841,263 Penn Road,,,Wolverhampton,,WV4 5SF,52.56480026245117,-2.147127628
10802905,698 St. Albans Road,,,Watford,,WD25 9FG,51.68365097045898,-0.391191691
10829228,1 Sandstone Drive,Whiston,,Prescot,,L35 7LS,53.42542648,-2.779597521
10855530,Homewood,Hensingham,,Whitehaven,Cumbria,CA28 8JG,54.53020095825195,-3.563160181
10855561,Highfield Road,,,Widnes,,WA8 7DJ,53.37405776977539,-2.735519886
10880391,,"Intu Centre Watford, Lower Mall, Queens Road",,,,WD17 2UB,51.65411758422852,-0.392844796
10880393,,"Parklands Suite 2, 1 Lyme Drive",,,,ST4 6NW,52.99689102172852,-2.211976528
10880408,,Cumwhinton Drive,,Carlisle,Cumbria,CA1 3SX,54.87493133544922,-2.883722067
10917648,,Kent & Canterbury Hospital,,Canterbury,Kent,CT1 3NG,51.26658630371094,1.0870975255966189
10921185,Reeves Street,,,Walsall,,WS3 2JJ,52.61375427246094,-2.004830837
10921186,Alumwell Close,,,Walsall,,WS2 9XH,52.58213424682617,-2.002421618
10921194,Bushey Fields Road,,,Dudley,,DY1 2LZ,52.50290298461914,-2.116838217
10927464,120 Mile End Road,,,Colchester,,CO4 5XR,51.90629959106445,0.8949929475784301
10927514,Victoria Road South,,,Chelmsford,Essex,CM1 1LN,51.73524475097656,0.469032198
10927524,New London Road,,,Chelmsford,,CM2 0QH,51.730934143066406,0.4709116220474243
10927528,High Wych Road,,,Sawbridgeworth,,CM21 0HH,51.80709457397461,0.1304715871810913
10927609,9 Harley Street,,,London,,W1G 9QY,51.51700210571289,-0.146413714
10927610,25 Harley Street,,,London,,W1G 9QY,51.51700210571289,-0.146413714
10927611,West Hanningfield Road,Great Baddow,,Chelmsford,,CM2 8HN,51.70777512,0.5023775696754456
10928125,Ribston Avenue,,,Exeter,,EX1 3QE,50.72465515136719,-3.486788511
10935138,Mill Lane,Kegworth,,Derby,,DE74 2EJ,52.83622360229492,-1.275923371
10942469,60 Bradley Road,,,Stourbridge,West Midlands,DY8 1UX,52.45992660522461,-2.152428627
10943515,Trinity Street,,,Taunton,,TA1 3JG,51.01395034790039,-3.091614723
10943516,Kingweston Road,Butleigh,,Glastonbury,,BA6 8TF,51.09349442,-2.685054541
10953840,Osprey Road,Sowton Industrial Estate,,Exeter,,EX2 7JG,50.72465515136719,-3.46455884
10953844,Fifth Floor,11 Leadenhall Street,,London,,EC3V 1LP,51.51337432861328,-0.083017878
10953845,18-22 Queen Anne Street,,,London,,W1G 8HU,51.51819992,-0.147028148
10955136,1 Laregan Hill,,,Penzance,Cornwall,TR18 4NY,50.11140441894531,-5.548555851
10955521,Victoria Road,,,Wimborne,,BH21 1ER,50.80220031738281,-1.995904088
10955643,,Old Street,,,,BS21 6BS,51.43789672851562,-2.845876694
10956123,London Road,,,Ascot,,SL5 8AA,51.41016769,-0.687337935
10956126,St. Leonards Road,,,Windsor,,SL4 3DP,51.47354507446289,-0.614692628
10956127,Wellington Road,,,Brackley,,NN13 6QZ,52.03805923461914,-1.137703061
10956137,Martyrs Avenue,,,Crawley,,RH11 7EJ,51.13195419311523,-0.189015657
10956141,Uwe Bristol Exhibition & Conference,Filton Road,,Bristol,,BS16 1ZG,51.50322723388672,-2.548708439
10956142,Farmfield Drive,Charlwood,,Horley,,RH6 0BN,51.16637039,-0.201957092
10956143,Whitepost Hill,,,Redhill,,RH1 6YY,51.23707962036133,-0.179217756
10956150,Oak Tree Clinic,Redding Way,Knaphill,Woking,,GU21 2QS,51.31475067138672,-0.615577221
10956151,London Road,,,Harrow,,HA1 3JL,51.56709289550781,-0.337969631
10956153,Gidds Pond Way,Off Newnham Court Way,Weavering,Maidstone,,ME14 5FT,51.28654861450195,0.556725025
